,ID,Isconfidential,ProjectName,Street,City,Región,State,N Región,Zipcode,Country,LEEDSystemVersionDisplayName,Clasificación Sistema,PointsAchieved,CertLevel,CertDate,Mes certificación,Año certificación,IsCertified,OwnerTypes,GrossSqFoot,mt2,TotalPropArea,ProjectTypes,Clasificación OGUC,Clasificación INE,PROGRAMA,Clasificación CPR,OwnerOrganization,RegistrationDate,Mes registro,Año registro,Clasificación OGUC.1,latitud,longitud,Pais,direccion,lat,lon
0,10003695,No,TITANIUM - LA PORTADA,AV. ISIDORA GOYENECHEA  2800,SANTIAGO DE CHILE,Metropolitana, ,RM,11111,CL,LEED-CS 1.0 Pilot,BD+C,40,Gold,10/12/2010,12,2010,Yes,Profit Org.,8900000000,82683.7056,720000000.0,Commercial Office,Equip. Servicios,"Ind., Com y EF",Servicios,Público,INMOBILIARIA TITANIUM,38779,3,2006,Equip. Servicios,-33.4136216,-70.60355820000001,Chile,"AV. ISIDORA GOYENECHEA  2800, SANTIAGO DE CHILE,  , Chile",-33.4136216,-70.6035582
1,10163607,No,Homecenter SODIMAC Copiapo,Panamericana Acceso Sur 140,Copiapo,Atacama, ,RM,11111,CL,LEED-NC 2.2,BD+C,34,Silver,24/08/2009,8,2009,Yes,Profit Org.,1106550000,10280.1858912,2653630000.0,Retail,Equip. Comercio,"Ind., Com y EF",Comercial,Comercial, ,39419,12,2007,Equip. Comercio,-27.80712,-70.50437,Chile,"Panamericana Acceso Sur 140, Copiapo,  , Chile",-27.80712,-70.50437
2,10231029,No,EDIFICIO COSTANERA COSAS,Almirante Pastene Street No. 333 and 311,"Providencia, Santiago",Metropolitana, ,RM,7500506,CL,LEED-CS 2.0,BD+C,34,Gold,21/10/2010,10,2010,Yes,Profit Org.,700510000,6507.95085504,176140000.0,Commercial Office,Equip. Servicios,"Ind., Com y EF",Servicios,Público,TiempoPresente Ltda.,39568,4,2008,Equip. Servicios,-33.514990000000004,-70.56055,Chile,"Almirante Pastene Street No. 333 and 311, Providencia, Santiago,  , Chile",-33.51499,-70.56055
3,10271657,No,EDIFICIO DE LA CONSTRUCCION  mn,LO FONTECILLA  441,Puerto Montt,Los Lagos, ,RM,5480000,CL,LEED-CS 2.0,BD+C,29,Silver,30/08/2011,8,2011,Yes,Profit Org.,1099620000,10215.80408448,102160000.0,Commercial Office,Equip. Servicios,"Ind., Com y EF",Servicios,Público,Constructoras Puerto Montt S.A.,39651,7,2008,Equip. Servicios,-41.471131799999995,-72.93867009999998,Chile,"LO FONTECILLA  441, Puerto Montt,  , Chile",-41.47203826904297,-72.93829345703125
4,10271660,No,EDIFICIO CERRO EL PLOMO,Calle Cerro El Plomo No.6000,Santiago,Metropolitana, ,RM,73155,CL,LEED-CS 2.0,BD+C,34,Gold,06/08/2014,8,2014,Yes,Profit Org.,3310000000,30750.906239999997,509160000.0,Commercial Office,Equip. Servicios,"Ind., Com y EF",Servicios,Público, ,39651,7,2008,Equip. Servicios,-33.404140000000005,-70.5703,Chile,"Calle Cerro El Plomo No.6000, Santiago,  , Chile",-33.40414,-70.5703
5,10291601,No,IRI Copiapo - Fundacion Teleton,Av. Carmen Vilches esq. Pje. El Colorado,Copiapo,Atacama, ,RM,1530000,CL,LEED-NC 2.2,BD+C,38,Silver,14/09/2012,9,2012,Yes,Non-Profit Org.,262850000,2441.9564064,1089090000.0,"Special Needs, Health Care",Equip. Salud,Servicios,Salud,Público,Sociedad Proayuda del NiÃ±o Lisiado,39692,9,2008,Equip. Salud,-27.345470000000002,-70.35141999999999,Chile,"Av. Carmen Vilches esq. Pje. El Colorado, Copiapo,  , Chile",-27.34547,-70.35142
6,10294857,No,Plaza San Damian Office Building,Las Condes Avenue 11287,Santiago,Metropolitana, ,RM,7590992,CL,LEED-CS 2.0,BD+C,36,Gold,10/02/2013,2,2013,Yes,Profit Org.,1904020000,17688.92462208,457090000.0,Commercial Office,Equip. Servicios,"Ind., Com y EF",Servicios,Público, ,39698,9,2008,Equip. Servicios,-33.377325899999995,-70.5270803,Chile,"Las Condes Avenue 11287, Santiago,  , Chile",-33.3773259,-70.5270803
7,10295140,No,EDIFICIO HORIZONTES,Avenida del Parque 4520,SANTIAGO,Metropolitana, ,RM,8580000,CL,LEED-CS 2.0,BD+C,31,Silver,07/05/2014,5,2014,Yes,Profit Org.,545000000,5063.215679999999,,Commercial Office,Equip. Servicios,"Ind., Com y EF",Servicios,Público, ,39699,9,2008,Equip. Servicios,-33.3918983,-70.6198008,Chile,"Avenida del Parque 4520, SANTIAGO,  , Chile",-33.3918983,-70.6198008
8,10295170,No,MALL PLAZA EGADA,Av. Americo Vespucio Sur,Santiago,Metropolitana, ,RM,7850000,CL,LEED-CS 2.0,BD+C,34,Gold,03/11/2015,11,2015,Yes,Profit Org.,16200000000,150502.9248,3314900000.0,"Multi-Unit Residence, Commercial Office, Retail, Health Care, Restaurant, Financial & Comm.",Equip. Comercio,"Ind., Com y EF",Mall,Comercial, ,39699,9,2008,Equip. Comercio,-33.415409999999994,-70.58386999999999,Chile,"Av. Americo Vespucio Sur, Santiago,  , Chile",-33.41541,-70.58387
9,10300284,No,HOMECENTER SODIMAC QUILICURA,Manuel Antonio Matta  581,Santiago,Metropolitana, ,RM,8700065,CL,LEED-NC 2.2,BD+C,33,Silver,02/12/2014,12,2014,Yes,Profit Org.,1320000000,12263.20128,,"Commercial Office, Retail",Equip. Comercio,"Ind., Com y EF",Comercial,Comercial, ,39707,9,2008,Equip. Comercio,-33.457556800000006,-70.64078470000001,Chile,"Manuel Antonio Matta  581, Santiago,  , Chile",-33.4575568,-70.6407847
10,10322935,No,EDIFICIO FUNDACION MINERA ESCONDIDA,B O'Higgings Ave.  1280,ANTOFAGASTA,Antofagasta, ,RM,1270168,CL,LEED-NC 2.2,BD+C,40,Gold,09/06/2011,6,2011,Yes,Profit Org.,154360000,1434.05132544,151720000.0,Other,Equip. Servicios,"Ind., Com y EF",Servicios,Comercial,Fundacion Minera Escondida,39744,10,2008,Equip. Servicios,-23.639450073200003,-70.3959732056,Chile,"B O'Higgings Ave.  1280, ANTOFAGASTA,  , Chile",-23.639450073242188,-70.3959732055664
11,10358107,No,Territoria El Bosque,Av. Apoquindo 2827,Santiago,Metropolitana, ,RM,7510025,CL,LEED-CS 2.0,BD+C,34,Gold,21/01/2014,1,2014,Yes,Profit Org.,2179640000,20249.51821056,313180000.0,"Commercial Office, Retail",Equip. Servicios,Servicios,Servicios,Público, ,39813,12,2008,Equip. Servicios,-33.417840000000005,-70.60021,Chile,"Av. Apoquindo 2827, Santiago,  , Chile",-33.41784,-70.60021
12,10384274,No,INSTITUTO DE REHABILITACION CALAMA,TENIENTE MERINO 3551,CALAMA,Antofagasta, ,RM,0,CL,LEED-NC 2.2,BD+C,39,Gold,07/05/2014,5,2014,Yes,Non-Profit Org.,201140000,1868.65174656,1127740000.0,Health Care,Equip. Salud,Servicios,Salud,Público,Sociedad Proayuda del NiÃ±o Lisiado,39850,2,2009,Equip. Salud,-22.44726,-68.90392,Chile,"TENIENTE MERINO 3551, CALAMA,  , Chile",-22.44726,-68.90392
13,10384287,No,IRI Coyhaique - Fundacion Teleton,Ejercito Esq. Avda Norte Sur S/NÂº,COYHAIQUE,Aysén del General Carlos Ibañez del Campo, ,RM,0,CL,LEED-NC 2.2,BD+C,44,Gold,29/05/2014,5,2014,Yes,Non-Profit Org.,156720000,1455.97644288,1075790000.0,"Special Needs, Health Care",Equip. Salud,Servicios,Salud,Público,Sociedad Proayuda del NiÃ±o Lisiado,39850,2,2009,Equip. Salud,-45.57935,-72.07679,Chile,"Ejercito Esq. Avda Norte Sur S/NÂº, COYHAIQUE,  , Chile",-45.57935,-72.07679
14,10415674,No,TRANSOCEANICA BUSINESS PARK,5880 Santa Maria Ave.,Santiago,Metropolitana, ,RM,7660268,CL,LEED-NC 2.2,BD+C,39,Gold,25/04/2011,4,2011,Yes,Profit Org.,1846030000,17150.17989312,,"Commercial Office, Retail",Equip. Servicios,Servicios,Servicios,Público, ,39882,3,2009,Equip. Servicios,-33.43165,-70.65285,Chile,"5880 Santa Maria Ave., Santiago,  , Chile",-33.43165,-70.65285
15,10491325,No,Edificio YOEMAR,Calle Local,Santiago,Metropolitana, ,RM,1111111,CL,LEED-CS 2.0,BD+C,35,Gold,16/10/2015,10,2015,Yes,Profit Org.,1879070000,17457.13153728,,"Commercial Office, Retail",Equip. Comercio,"Ind., Com y EF",Servicios,Público,New contact,39933,4,2009,Equip. Servicios,-33.577709999999996,-70.58242,Chile,"Calle Local, Santiago,  , Chile",-33.57771,-70.58242
16,10706021,No,FALABELLA SAN FELIPE,"AV. BERNARDO O´HIGGINS 1150, SAN FELIPE",SAN FELIPE,Valparaíso, ,RM,0,CL,LEED for Retail (CI) Pilot,ID+C,25,Certified,04/11/2011,11,2011,Yes,Profit Org.,367900000,3417.9028416,,Retail,Equip. Comercio,"Ind., Com y EF",Comercial,Comercial, ,40662,4,2011,Equip. Comercio,-32.7494812012,-70.7253112793,Chile,"AV. BERNARDO O´HIGGINS 1150, SAN FELIPE, SAN FELIPE,  , Chile",-32.75172476168371,-70.71400666534083
17,10706022,No,FALABELLA CALAMA,AV. BALMACEDA 3242,CALAMA,Antofagasta, ,RM,0,CL,LEED for Retail (CI) Pilot,ID+C,26,Certified,26/04/2013,4,2013,Yes,Profit Org.,1010400000,9386.9231616,,Retail,Equip. Comercio,"Ind., Com y EF",Comercial,Comercial, ,40662,4,2011,Equip. Comercio,-22.450337100000002,-68.9209082,Chile,"AV. BALMACEDA 3242, CALAMA,  , Chile",-22.4503371,-68.9209082
18,10799283,No,Starbucks Barrio Universitario,Vergara 324,Santiago,Metropolitana, ,RM, ,CL,LEED for Retail (CI) Pilot,ID+C,23,Certified,01/11/2012,11,2012,Yes,Profit Org.,16700000,155.1480768,,Retail,Equip. Comercio,"Ind., Com y EF",Comercial,Comercial, ,41158,9,2012,Equip. Comercio,-33.451370000000004,-70.66168,Chile,"Vergara 324, Santiago,  , Chile",-33.45137,-70.66168
19,10832294,No,Starbucks Portal Nunoa,"Av. Jose Pedro Alessandri 1166, Nunoa",Santiago,Metropolitana, ,RM,7750000,CL,LEED for Retail (CI) Pilot,ID+C,23,Certified,10/12/2012,12,2012,Yes,Profit Org.,8350000,77.5740384,,Retail,Equip. Comercio,"Ind., Com y EF",Comercial,Comercial, ,41253,12,2012,Equip. Comercio,-33.4653,-70.59808000000001,Chile,"Av. Jose Pedro Alessandri 1166, Nunoa, Santiago,  , Chile",-33.4653,-70.59808
20,10832295,No,Starbucks Espacio M,Compania de Jesus & Morande,Santiago,Metropolitana, ,RM,9250000,CL,LEED for Retail (CI) Pilot,ID+C,23,Certified,10/12/2012,12,2012,Yes,Profit Org.,18810000,174.75061824,,Retail,Equip. Comercio,"Ind., Com y EF",Comercial,Comercial, ,41253,12,2012,Equip. Comercio,-33.3495,-70.74479000000001,Chile,"Compania de Jesus & Morande, Santiago,  , Chile",-33.3495,-70.74479
21,10842168,No,Starbucks Costanera Center,Avenida Andres Bello No. 2465,Santiago,Metropolitana,RM - Santiago,RM, ,CL,LEED for Retail (CI) Pilot,ID+C,23,Certified,23/04/2013,4,2013,Yes,,0,0.0,,,Equip. Comercio,"Ind., Com y EF",Comercial,Comercial,,41387,4,2013,Equip. Comercio,-33.4162353,-70.6067506,Chile,"Avenida Andres Bello No. 2465, Santiago, RM - Santiago, Chile",-33.4162353,-70.6067506
22,10872850,No,Starbucks Plaza San Carlos,La Plaza esq. Las Flores Metropolitana,Santiago,Metropolitana, ,RM,7610662,CL,LEED for Retail (CI) Pilot,ID+C,22,Certified,19/07/2013,7,2013,Yes,Profit Org.,15000000,139.35456000000002,,Retail,Equip. Comercio,"Ind., Com y EF",Comercial,Comercial, ,41470,7,2013,Equip. Comercio,-33.279740000000004,-70.64115,Chile,"La Plaza esq. Las Flores Metropolitana, Santiago,  , Chile",-33.27974,-70.64115
23,10873135,No,Starbucks Edificio Ariztia,La Bolsa & Nueva Yorka,Santiago,Metropolitana, ,RM,110,CL,LEED for Retail (CI) Pilot,ID+C,23,Certified,06/11/2013,11,2013,Yes,Profit Org.,15000000,139.35456000000002,,Retail,Equip. Comercio,"Ind., Com y EF",Comercial,Comercial, ,41584,11,2013,Equip. Comercio,-33.44279,-70.65116,Chile,"La Bolsa & Nueva Yorka, Santiago,  , Chile",-33.44279,-70.65116
24,1000001065,No,Edificio Beauchef 851,851 Beauchef,Santiago,Metropolitana,RM - Santiago,RM,8370456,CL,LEED-NC v2009,BD+C,65,Gold,26/09/2017,9,2017,Yes,"Educational: University, Public",3554028000,33018.000544512004,721180000.0,Campus (corp/school),Equip. Educación,Servicios,Educación,Público,Universidad De Chile,40023,7,2009,Equip. Educación,-33.3545927,-70.72016579999999,Chile,"851 Beauchef, Santiago, RM - Santiago, Chile",-33.3545927,-70.7201658
25,1000001169,No,UNIVERSIDAD DIEGO PORTALES BIBLIOTECA,Calle Vergara 324,SANTIAGO,Metropolitana,RM - Santiago,RM,7510034,CL,LEED-NC v2009,BD+C,66,Gold,01/08/2012,8,2012,Yes,"Educational: University, Private",1579917000,14677.909224768,177860000.0,Core Learning Space: College/University,Equip. Educación,Servicios,Educación,Público,University,40035,8,2009,Equip. Educación,-33.451370000000004,-70.66168,Chile,"Calle Vergara 324, SANTIAGO, RM - Santiago, Chile",-33.45137,-70.66168
26,1000003554,No,Banco Itau - Edificio Santa Clara,Avenida Los Jardines 991-995,Santiago,Metropolitana,RM - Santiago,RM,8580000,CL,LEED-CS v2009,BD+C,65,Gold,02/11/2011,11,2011,Yes,Corporate: Privately Held,843649700,7837.7621825088,563680000.0,Retail: Bank Branch,Equip. Servicios,"Ind., Com y EF",Financiera,Comercial,ITAU Chile Inversiones Servicios Y Admin,40177,12,2009,Equip. Servicios,-33.3875475,-70.620432,Chile,"Avenida Los Jardines 991-995, Santiago, RM - Santiago, Chile",-33.3875475,-70.620432
27,1000003593,No,Hogar Numero 19 Fundacion Las Rosas,Manuel Bulnes 591,Valdivia,De Los Ríos,X - Puerto Montt,X,5090000,CL,LEED-NC v2009,BD+C,58,Silver,18/06/2012,6,2012,Yes,Religious,283500100,2633.8021130304,1271510000.0,Lodging: Other lodging,Residencial,"Ind., Com y EF",Residencial,Residencial,Fundacion Oportunidad,40181,1,2010,Residencial,-41.474579999999996,-72.94821999999999,Chile,"Manuel Bulnes 591, Valdivia, X - Puerto Montt, Chile",-41.47458,-72.94822
28,1000003594,No,EDIFICIO DE OFICINAS LA CONCEPCION,Calle La Concepcion 141,Santiago,Metropolitana,RM - Santiago,RM,7510000,CL,LEED-CS v2009,BD+C,57,Silver,01/08/2012,8,2012,Yes,Investor: Individual/Family,947116700,8799.0020664768,213210000.0,Office: Mixed-Use,Equip. Servicios,"Ind., Com y EF",Servicios,Público,Santolaya Ingenieros Consultores Ltda.,40181,1,2010,Equip. Servicios,-33.424490000000006,-70.61576,Chile,"Calle La Concepcion 141, Santiago, RM - Santiago, Chile",-33.42449,-70.61576
29,1000003776,No,HOTEL THE SINGULAR PATAGONIA,"Km. 5,5 Norte - Puerto Bories Provincia Ultima Esperanza",PUERTO NATALES,Magallanes y Antártica Chilena,XII - Punta Arenas,XII,6200000,CL,LEED-NC v2009,BD+C,51,Silver,13/12/2012,12,2012,Yes,Investor: Individual/Family,1675834200,15569.0091715968,7856630000.0,"Lodging: Hotel/Motel/Resort, Select Service",Residencial,"Ind., Com y EF",Residencial,Residencial,The Singular,40184,1,2010,Residencial,-53.1511993408,-70.8974533081,Chile,"Km. 5,5 Norte - Puerto Bories Provincia Ultima Esperanza, PUERTO NATALES, XII - Punta Arenas, Chile",-53.15119934082031,-70.89745330810547
30,1000003896,No,Edificio Nueva de Lyon 145,Nueva De Lyon 145,Santiago,Metropolitana,RM - Santiago,RM,7510025,CL,LEED-CS v2009,BD+C,56,Silver,24/05/2012,5,2012,Yes,Corporate: Privately Held,1574410000,14626.74752064,276410000.0,Office: Mixed-Use,Equip. Servicios,"Ind., Com y EF",Servicios,Público,ENERGY ARQ,40186,1,2010,Equip. Servicios,-33.42037,-70.61095999999999,Chile,"Nueva De Lyon 145, Santiago, RM - Santiago, Chile",-33.42037,-70.61096
31,1000004125,No,Planta Embotelladora Andina,Miraflores 8953,Santiago,Metropolitana,RM - Santiago,RM,1111111,CL,LEED-NC v2009,BD+C,41,Certified,28/06/2013,6,2013,Yes,Corporate: Publicly Traded,3583382000,33290.708128128,6026770000.0,Industrial Manufacturing,Act. Productiva,"Ind., Com y EF",Industria,Público,EMBOTELLADORA ANDINA S.A.,40187,1,2010,Act. Productiva,-33.39571,-70.76456999999999,Chile,"Miraflores 8953, Santiago, RM - Santiago, Chile",-33.39571,-70.76457
32,1000004126,No,Edificio Puerto Centro,Moneda 1640,Santiago,Metropolitana,RM - Santiago,RM,8340533,CL,LEED-CS v2009,BD+C,60,Gold,09/01/2015,1,2015,Yes,Investor: Investment Manager,1231981700,11445.4845154368,137070000.0,Office: Mixed-Use,Equip. Servicios,"Ind., Com y EF",Servicios,Público,Constructora Moneda Fanor S.A.,40187,1,2010,Equip. Servicios,-33.441759999999995,-70.64853000000001,Chile,"Moneda 1640, Santiago, RM - Santiago, Chile",-33.44176,-70.64853
33,1000005546,No,EDIFICIO PLAZA BELLET,Antonio Bellet 444,Providencia,Metropolitana,RM - Santiago,RM,7510034,CL,LEED-CS v2009,BD+C,54,Silver,30/04/2014,4,2014,Yes,Investor: Individual/Family,1087420000,10102.46237568,224750000.0,Office: Mixed-Use,Equip. Servicios,"Ind., Com y EF",Servicios,Público,Constructora E Inmobiliaria Plaza Bellet,40268,3,2010,Equip. Servicios,-33.42437,-70.6197,Chile,"Antonio Bellet 444, Providencia, RM - Santiago, Chile",-33.42437,-70.6197
34,1000005943,No,Edificio Esmeralda BHP,Esmeralda 340,IQUIQUE,Tarapacá,I - Iquique,I,1100000,CL,LEED-CI v2009,ID+C,65,Gold,07/04/2011,4,2011,Yes,Corporate: Privately Held,255438400,2373.1003892736,,Office: Administrative/Professional,Equip. Servicios,"Ind., Com y EF",Servicios,Público,BHP Chile Inc,40289,4,2010,Equip. Servicios,-20.211389999999998,-70.15151,Chile,"Esmeralda 340, IQUIQUE, I - Iquique, Chile",-20.21139,-70.15151
35,1000007059,No,Edificio Foster,Av. Apoquindo 3468,Santiago,Metropolitana,RM - Santiago,RM,7550105,CL,LEED-CS v2009,BD+C,55,Silver,31/05/2013,5,2013,Yes,"Investor: REIT,Non-traded",1612475200,14980.3848004608,273080000.0,Office: Mixed-Use,Equip. Servicios,"Ind., Com y EF",Servicios,Público,Const. E Inmob. Enrique Foster S.A.,40347,6,2010,Equip. Servicios,-33.408409999999996,-70.56626999999999,Chile,"Av. Apoquindo 3468, Santiago, RM - Santiago, Chile",-33.40841,-70.56627
36,1000008563,No,BODEGAS BODENOR FLEXCENTER S A,"Loteo Lo Boza, Parcelacion El Bosque Lote 10",Santiago,Metropolitana,RM - Santiago,RM,7630440,CL,LEED-CS v2009,BD+C,61,Gold,20/03/2014,3,2014,Yes,Corporate: Privately Held,4849880000,45056.85956352,7933360000.0,"Warehouse and Distribution Center: Nonrefrigerated, Distribu",Act. Productiva,"Ind., Com y EF",Centro Distribución,Público,BodenorFlexcenter,40401,8,2010,Act. Productiva,-33.4177812,-70.5997797,Chile,"Loteo Lo Boza, Parcelacion El Bosque Lote 10, Santiago, RM - Santiago, Chile",-33.4177812,-70.5997797
37,1000008670,No,Banco BCI Vitacura Oriente,Avenida Vitacura 6852 Vitacura,Santiago,Metropolitana,RM - Santiago,RM,7640538,CL,LEED-NC v2009,BD+C,66,Gold,24/08/2011,8,2011,Yes,Investor: Bank,23100000,214.6060224,63610000.0,Retail: Bank Branch,Equip. Servicios,"Ind., Com y EF",Financiera,Comercial,BCI Bank,40402,8,2010,Equip. Servicios,-33.38731,-70.56582,Chile,"Avenida Vitacura 6852 Vitacura, Santiago, RM - Santiago, Chile",-33.38731,-70.56582
38,1000008804,No,Edificio Corporativo MOLYMET,"Camino Las Lilas 66, San Bernardo",Santiago,Metropolitana,RM - Santiago,RM,0,CL,LEED-NC v2009,BD+C,81,Platinum,14/03/2013,3,2013,Yes,Corporate: Privately Held,468486100,4352.3782887744,4109870000.0,Office: Administrative/Professional,Equip. Servicios,"Ind., Com y EF",Servicios,Público,MOLYMET Molibdenos Y Metales,40409,8,2010,Equip. Servicios,-33.45428,-70.85092,Chile,"Camino Las Lilas 66, San Bernardo, Santiago, RM - Santiago, Chile",-33.45428,-70.85092
39,1000010805,No,Edificio Rosario Norte,"CERRO EL PLOMO 5755, LAS CONDES",Santiago De Chile,Metropolitana,RM - Santiago,RM,0,CL,LEED-NC v2009,BD+C,54,Silver,26/04/2016,4,2016,Yes,Investor: Insurance Company,5688670000,52849.47365568,780560000.0,Office: Financial,Equip. Servicios,"Ind., Com y EF",Servicios,Público,Bice Vida CompaÃ±ia De Seguros S.A.,40492,11,2010,Equip. Servicios,-33.40524,-70.57193000000001,Chile,"CERRO EL PLOMO 5755, LAS CONDES, Santiago De Chile, RM - Santiago, Chile",-33.40524,-70.57193
40,1000011070,No,Edificio Apoquindo 5400,Av. Apoquindo 5400 Las Condes,Santiago,Metropolitana,RM - Santiago,RM,7560911,CL,LEED-CS v2009,BD+C,61,Gold,10/09/2013,9,2013,Yes,Investor: Investment Manager,2900487100,26946.4069070784,439990000.0,Office: Mixed-Use,Equip. Servicios,"Ind., Com y EF",Servicios,Público,INMOB. Y CONSTRUCTORA APOQUINDO 5400,40504,11,2010,Equip. Servicios,-33.41555,-70.5072,Chile,"Av. Apoquindo 5400 Las Condes, Santiago, RM - Santiago, Chile",-33.41555,-70.5072
41,1000012362,No,KOMATSU CORPORATIVO,Americo Vespucio 591,Santiago,Metropolitana,RM - Santiago,RM,8730596,CL,LEED-NC v2009,BD+C,55,Silver,07/04/2014,4,2014,Yes,Corporate: Privately Held,567076700,5268.3149343168,615380000.0,Office: Administrative/Professional,Equip. Servicios,"Ind., Com y EF",Servicios,Público,Komatsu,40561,1,2011,Equip. Servicios,-33.53448,-70.67267,Chile,"Americo Vespucio 591, Santiago, RM - Santiago, Chile",-33.53448,-70.67267
42,1000012519,No,I-Apt Paz Corp,Av. Americo Vespucio 1798,Santiago,Metropolitana,RM - Santiago,RM,7630272,CL,LEED-NC v2009,BD+C,63,Gold,21/04/2014,4,2014,Yes,Investor: Investment Manager,1153400000,10715.4366336,432390000.0,Multi-Family Residential: Apartment,Residencial,Vivienda,Residencial,Residencial,PAZCORP S.A.,40568,1,2011,Residencial,-33.4286403,-70.5746205,Chile,"Av. Americo Vespucio 1798, Santiago, RM - Santiago, Chile",-33.4286403,-70.5746205
43,1000012539,No,OFICINAS ORIENCOOP TALCA,Calle 2 Sur 2154,Talca,Del Maule,VII - Talca,VII,3460405,CL,LEED-NC v2009,BD+C,50,Silver,16/06/2016,6,2016,Yes,Corporate: Privately Held,65336900,606.9996634176,41550000.0,Office: Mixed-Use,Equip. Servicios,"Ind., Com y EF",Servicios,Público,"Oriencoop, Cooperativa De Ahorro Y Credi",40568,1,2011,Equip. Servicios,-35.4301403,-71.6444181,Chile,"Calle 2 Sur 2154, Talca, VII - Talca, Chile",-35.4301403,-71.6444181
44,1000012638,No,EDIFICIO NARCISO GOYCOLEA,Narciso Goycolea 4055,Santiago,Metropolitana,RM - Santiago,RM,7510031,CL,LEED-CS v2009,BD+C,65,Gold,24/09/2015,9,2015,Yes,Investor: Investment Manager,845385900,7853.8920083136,444680000.0,Office: Mixed-Use,Equip. Servicios,"Ind., Com y EF",Servicios,Público,Inmobiliaria Y Constructora Goycolea S.A,40573,1,2011,Equip. Servicios,-33.39573,-70.5981,Chile,"Narciso Goycolea 4055, Santiago, RM - Santiago, Chile",-33.39573,-70.5981
45,1000012761,No,Renaissance Santiago Hotel,Av. Kennedy 4700,Santiago,Metropolitana,RM - Santiago,RM,7630454,CL,LEED-NC v2009,BD+C,62,Gold,17/11/2014,11,2014,Yes,Investor: Investment Manager,1363181800,12664.3733292672,376740000.0,"Lodging: Hotel/Motel/Resort, Full Service",Residencial,"Ind., Com y EF",Residencial,Residencial,Construcciones Y Promociones Iberica Ltd,40577,2,2011,Residencial,-33.40285,-70.58438000000001,Chile,"Av. Kennedy 4700, Santiago, RM - Santiago, Chile",-33.40285,-70.58438
46,1000013543,No,Edificio Oficinas San Andres,Avenida San Andres 43,Concepcion,Del Bío Bío,VIII - ConcepciÂ¾n,VIII,0,CL,LEED-CS v2009,BD+C,51,Silver,05/10/2017,10,2017,Yes,Investor: Investment Manager,1200234400,11150.5424472576,265100000.0,Office: Other Office,Equip. Servicios,"Ind., Com y EF",Servicios,Público,Inmobiliaria Y Constructora San Andres,40609,3,2011,Equip. Servicios,-36.79231,-73.05883,Chile,"Avenida San Andres 43, Concepcion, VIII - ConcepciÂ¾n, Chile",-36.79231,-73.05883
47,1000013865,No,CITYPARK I - Corporativo Cruz Verde,Avenida El Salto 4963/ 5051,Santiago,Metropolitana,RM - Santiago,RM,8580668,CL,LEED-NC v2009,BD+C,62,Gold,04/05/2015,5,2015,Yes,Corporate: Privately Held,1476535600,13717.4645908224,544630000.0,Office: Other Office,Equip. Servicios,"Ind., Com y EF",Servicios,Público,CRUZ VERDE S.A.,40623,3,2011,Equip. Servicios,-33.38572,-70.62186,Chile,"Avenida El Salto 4963/ 5051, Santiago, RM - Santiago, Chile",-33.38572,-70.62186
48,1000014107,No,Edificio White,Avenida Vitacura 6840,Santiago,Metropolitana,RM - Santiago,RM,7640538,CL,LEED-CS v2009,BD+C,61,Gold,03/02/2014,2,2014,Yes,Corporate: Privately Held,554450000,5151.0090528,210080000.0,Office: Mixed-Use,Equip. Servicios,"Ind., Com y EF",Servicios,Público,Inmobiliaria White,40633,3,2011,Equip. Servicios,-33.38757639999999,-70.56634790000001,Chile,"Avenida Vitacura 6840, Santiago, RM - Santiago, Chile",-33.3875764,-70.5663479
49,1000015089,No,Costanera Center Tower 2,Av Andres Bello,Santiago,Metropolitana,RM - Santiago,RM,0,CL,LEED-CS v2009,BD+C,63,Gold,24/10/2016,10,2016,Yes,Corporate: Publicly Traded,11509163200,106923.624913613,464990000.0,Office: Mixed-Use,Equip. Servicios,"Ind., Com y EF",Servicios,Público,Costanera Center,40652,4,2011,Equip. Servicios,,,Chile,"Av Andres Bello, Santiago, RM - Santiago, Chile",-33.41255,-70.60405
50,1000015091,No,Costanera Center Tower 4,Vitacura 180,Santiago,Metropolitana,RM - Santiago,RM,0,CL,LEED-CS v2009,BD+C,60,Gold,27/09/2017,9,2017,Yes,Corporate: Publicly Traded,4867561800,45221.1288607872,4952150000.0,Office: Mixed-Use,Equip. Servicios,"Ind., Com y EF",Servicios,Público,Cencosud S.A.,40652,4,2011,Equip. Servicios,,,Chile,"Vitacura 180, Santiago, RM - Santiago, Chile",-33.418,-70.60563
51,1000015559,No,Edificio Isidora El Bosque,Isidora Goyenechea N#2909,Santiago,Metropolitana,RM - Santiago,RM,7550033,CL,LEED-CS v2009,BD+C,62,Gold,29/08/2017,8,2017,Yes,Investor: Bank,3467858700,32217.4615520448,431020000.0,Office: Mixed-Use,Equip. Servicios,"Ind., Com y EF",Servicios,Público,Fondo De Inv. Inmob. Santander Mixto,40668,5,2011,Equip. Servicios,,,Chile,"Isidora Goyenechea N#2909, Santiago, RM - Santiago, Chile",-33.41435,-70.59796
52,1000016063,No,EDIFICIO CENTREX L OREAL,Av. De Chena 11101,Santiago,Metropolitana,RM - Santiago,RM,8060055,CL,LEED-NC v2009,BD+C,54,Silver,14/12/2012,12,2012,Yes,Corporate: Privately Held,2732523500,25385.974002143997,5019460000.0,Warehouse and Distribution Center: Warehouse,Act. Productiva,"Ind., Com y EF",Centro Distribución,Público,LOreal Chile S.A.,40691,5,2011,Act. Productiva,,,Chile,"Av. De Chena 11101, Santiago, RM - Santiago, Chile",-33.41092,-70.53934
53,1000016082,No,EDIFICIO LATIN CAPITAL,Av. Chacabuco 467,CONCEPCION,Del Bío Bío,VIII - ConcepciÂ¾n,VIII,4070272,CL,LEED-CS v2009,BD+C,43,Certified,03/11/2014,11,2014,Yes,Investor: Investment Manager,443457600,4119.8559151104,57100000.0,Office: Administrative/Professional,Equip. Servicios,"Ind., Com y EF",Servicios,Público,Inmobiliaria Chacabuco 400 S.A.,40693,5,2011,Equip. Servicios,,,Chile,"Av. Chacabuco 467, CONCEPCION, VIII - ConcepciÂ¾n, Chile",-36.8313602,-73.0503868
54,1000016213,No,IBM Datacenter,Av Puerta Sur,San Bernardo,Metropolitana,RM - Santiago,RM,8060688,CL,LEED-NC v2009,BD+C,72,Gold,01/08/2013,8,2013,Yes,Corporate: Publicly Traded,213402100,1982.5703832384,1023830000.0,Datacenter,Equip. Servicios,"Ind., Com y EF",Data Center,Comercial,IBM,40700,6,2011,Equip. Servicios,,,Chile,"Av Puerta Sur, San Bernardo, RM - Santiago, Chile",-33.55196,-70.7139
55,1000016341,No,Centro Informaciones Parque Quilapilun,RUTA G-131 S/n,Colina,Metropolitana,RM - Santiago,RM,9340000,CL,LEED-NC v2009,BD+C,67,Gold,29/04/2013,4,2013,Yes,Investor: Investment Manager,23803300,221.1398932032,879190000.0,Public Assembly: Other Assembly,Equip. Esparcimiento,Servicios,Servicios,Público,Anglo American,40704,6,2011,Equip. Esparcimiento,,,Chile,"RUTA G-131 S/n, Colina, RM - Santiago, Chile",-33.56419,-70.54911
56,1000016346,No,Liceo Claudina Urrutia de Lavin,Catedral S/n,Cauquenes,Del Maule,VII - Talca,VII,0,CL,LEED FOR SCHOOLS v2009,BD+C,43,Certified,10/10/2013,10,2013,Yes,Investor: Endowment,682881900,6344.1804470976,760550000.0,"Core Learning Space: K-12, Elementary/Middle School",Equip. Educación,Servicios,Educación,Público,BHP Billiton,40704,6,2011,Equip. Educación,,,Chile,"Catedral S/n, Cauquenes, VII - Talca, Chile",-35.96864,-72.31626
57,1000016677,No,Edificio Terrazas,Avenida Del Parque 5243-5275-5307,Santiago,Metropolitana,RM - Santiago,RM,1111111,CL,LEED-CS v2009,BD+C,54,Silver,05/11/2014,11,2014,Yes,"Investor: REIT,Non-traded",1384124500,12858.937378848,647420000.0,Office: Other Office,Equip. Servicios,"Ind., Com y EF",Servicios,Público,Hispano Chilena,40717,6,2011,Equip. Servicios,,,Chile,"Avenida Del Parque 5243-5275-5307, Santiago, RM - Santiago, Chile",-33.39117,-70.6195
58,1000016848,No,Edificio Rafael Sanzio,Rafael Sanzio Esquina Donatello,Santiago,Metropolitana,RM - Santiago,RM,1111111,CL,LEED-NC v2009,BD+C,55,Silver,14/05/2014,5,2014,Yes,"Investor: REIT, Publicly traded",803487900,7464.6468513216005,294920000.0,Multi-Family Residential: Apartment,Residencial,Vivienda,Residencial,Residencial,ACONCAGUA,40725,7,2011,Residencial,,,Chile,"Rafael Sanzio Esquina Donatello, Santiago, RM - Santiago, Chile",-33.40304,-70.55521
59,1000017222,No,Planta OMNINUTS,Calle Boulevard Aeropuerto Norte No 9659,Santiago,Metropolitana,RM - Santiago,RM,1111111,CL,LEED-NC v2009,BD+C,45,Certified,13/01/2014,1,2014,Yes,Corporate: Privately Held,344212400,3197.8378365696003,668330000.0,"Warehouse and Distribution Center: Nonrefrigerated, Distribu",Act. Productiva,"Ind., Com y EF",Centro Distribución,Público,ENERGY ARQ,40744,7,2011,Act. Productiva,,,Chile,"Calle Boulevard Aeropuerto Norte No 9659, Santiago, RM - Santiago, Chile",-33.4281617,-70.7766617
60,1000017223,No,Edificio COIHUE,Av. Alonso De Cordova 3829,Santiago,Metropolitana,RM - Santiago,RM,111111,CL,LEED-CS v2009,BD+C,55,Silver,03/06/2015,6,2015,Yes,Corporate: Privately Held,350950300,3260.4349758912,130010000.0,Office: Administrative/Professional,Equip. Servicios,"Ind., Com y EF",Servicios,Público,INVERSIONES LIASE CHILE LTDA,40744,7,2011,Equip. Servicios,,,Chile,"Av. Alonso De Cordova 3829, Santiago, RM - Santiago, Chile",-33.4024803,-70.5924642
61,1000017435,No,EDIFICIO LA CONCEPCION 191,La Concepcion 191,Santiago,Metropolitana,RM - Santiago,RM,7500015,CL,LEED-CS v2009,BD+C,65,Gold,10/1/2019,10,2019,Yes,Investor: Investment Manager,903137500,8390.4219288,173900000.0,Office: Financial,Equip. Servicios,"Ind., Com y EF",Servicios,Público,Constructora E Inmobiliaria La Concepcio,40751,7,2011,Equip. Servicios,,,Chile,"La Concepcion 191, Santiago, RM - Santiago, Chile",-33.42388,-70.61635
62,1000017441,No,EDIFICIO APOQUINDO 2929,Av. Apoquindo 2929,Santiago,Metropolitana,RM - Santiago,RM,7550246,CL,LEED-CS v2009,BD+C,64,Gold,05/03/2015,3,2015,Yes,Investor: Investment Manager,2481304400,23052.0721925376,306060000.0,Office: Mixed-Use,Equip. Servicios,"Ind., Com y EF",Servicios,Público,Capital Advisors,40752,7,2011,Equip. Servicios,,,Chile,"Av. Apoquindo 2929, Santiago, RM - Santiago, Chile",-33.41758,-70.59925
63,1000017493,No,AUTOMOTORA INFINITI CHILE,Jose Alcalde Delano 10.371,Lo Barnechea,Metropolitana,RM - Santiago,RM,7690000,CL,LEED-NC v2009,BD+C,42,Certified,03/04/2014,4,2014,Yes,Corporate: Privately Held,105531000,980.415071424,293650000.0,Retail: Other Retail,Equip. Comercio,"Ind., Com y EF",Comercial,Comercial,SKBerge Inmobiliaria S.A.,40755,7,2011,Equip. Comercio,,,Chile,"Jose Alcalde Delano 10.371, Lo Barnechea, RM - Santiago, Chile",-33.36123,-70.54409
64,1000017954,No,Oficinas Roche Chile,"Cerro El Plomo 5630 Piso 11 Y 12, Las Condes",Santiago,Metropolitana,RM - Santiago,RM,7560742,CL,LEED-CI v2009,ID+C,67,Gold,23/10/2013,10,2013,Yes,Corporate: Privately Held,278362400,2586.0713181696,,Office: Administrative/Professional,Equip. Servicios,"Ind., Com y EF",Servicios,Público,ROCHE CHILE,40773,8,2011,Equip. Servicios,,,Chile,"Cerro El Plomo 5630 Piso 11 Y 12, Las Condes, Santiago, RM - Santiago, Chile",-33.4163982,-70.6090847
65,1000018333,No,EDIFICIO SECURITY VIDA,Av. Apoquindo 3131,Las Condes,Metropolitana,RM - Santiago,RM,7550217,CL,LEED-CS v2009,BD+C,60,Gold,28/03/2018,3,2018,Yes,Investor: Pension Fund,1660703500,15428.440368864,277210000.0,Office: Mixed-Use,Equip. Servicios,"Ind., Com y EF",Servicios,Público,Seguros Vida Security Prevision S.A.,40790,9,2011,Equip. Servicios,,,Chile,"Av. Apoquindo 3131, Las Condes, RM - Santiago, Chile",-33.41697,-70.59716
66,1000018334,No,EDIFICIO LAS CONDES 13800,Av Las Condes 13800,Lo Barnechea,Metropolitana,RM - Santiago,RM,7710072,CL,LEED-NC v2009,BD+C,60,Gold,12/08/2013,8,2013,Yes,Investor: Individual/Family,1310074500,12170.990367648,466650000.0,Multi-Family Residential: Apartment,Residencial,Vivienda,Residencial,Residencial,Molina Morel Inmobiliaria Y Constructora,40790,9,2011,Residencial,,,Chile,"Av Las Condes 13800, Lo Barnechea, RM - Santiago, Chile",-33.36911,-70.50425
67,1000018482,No,VSF - Edificio 1,Av. Francisco De Asis 2400,Santiago,Metropolitana,RM - Santiago,RM,1111111,CL,LEED-NC v2009,BD+C,53,Silver,12/06/2015,6,2015,Yes,"Investor: REIT, Publicly traded",241079900,2239.7055592896,258120000.0,Multi-Family Residential: Condominium,Residencial,Vivienda,Residencial,Residencial,Inmobiliaria San Damian Spa,40798,9,2011,Residencial,,,Chile,"Av. Francisco De Asis 2400, Santiago, RM - Santiago, Chile",-33.52507,-70.55927
68,1000018485,No,Valle San Francisco - Edificios 2 y 3,Av. Francisco De Asis 2400,Santiago,Metropolitana,RM - Santiago,RM,1111111,CL,LEED-NC v2009,BD+C,56,Silver,20/05/2015,5,2015,Yes,"Investor: REIT, Publicly traded",359384000,3338.786612736,309000000.0,Multi-Family Residential: Condominium,Residencial,Vivienda,Residencial,Residencial,Inmobiliaria San Damian,40798,9,2011,Residencial,,,Chile,"Av. Francisco De Asis 2400, Santiago, RM - Santiago, Chile",-33.52507,-70.55927
69,1000018486,No,VSF - Edificio 4 y 5,Av. Francisco De Asis 2400,Santiago,Metropolitana,RM - Santiago,RM,1111111,CL,LEED-NC v2009,BD+C,56,Silver,19/06/2015,6,2015,Yes,"Investor: REIT, Publicly traded",354850000,3296.6643744000003,268430000.0,Multi-Family Residential: Condominium,Residencial,Vivienda,Residencial,Residencial,Inmobiliaria Aconcagua,40798,9,2011,Residencial,,,Chile,"Av. Francisco De Asis 2400, Santiago, RM - Santiago, Chile",-33.52507,-70.55927
70,1000018487,No,VSF - Edificio 6 y 7,Av. Francisco De Asis 2400,Santiago,Metropolitana,RM - Santiago,RM,111111,CL,LEED-NC v2009,BD+C,50,Silver,18/10/2013,10,2013,Yes,"Investor: REIT, Publicly traded",445248800,4136.4967076352,352430000.0,Multi-Family Residential: Condominium,Residencial,Vivienda,Residencial,Residencial,Inmobiliaria Sab Damian S.A,40798,9,2011,Residencial,,,Chile,"Av. Francisco De Asis 2400, Santiago, RM - Santiago, Chile",-33.52507,-70.55927
71,1000018528,No,Oficinas BHP Billiton Pampa Norte piso 9,Esmeralda 340,Iquique,Tarapacá,I - Iquique,I,1100000,CL,LEED-CI v2009,ID+C,41,Certified,26/10/2012,10,2012,Yes,Corporate: Privately Held,85330000,792.74164032,,Office: Administrative/Professional,Equip. Servicios,"Ind., Com y EF",Servicios,Público,BHP Chile Inc.,40799,9,2011,Equip. Servicios,,,Chile,"Esmeralda 340, Iquique, I - Iquique, Chile",-20.21139,-70.15151
72,1000018586,No,Edificio Cereales,Camino Longitudinal Sur 5201,San Bernardo,Metropolitana,RM - Santiago,RM,8050000,CL,LEED-NC v2009,BD+C,61,Gold,06/01/2014,1,2014,Yes,Corporate: Publicly Traded,591570000,5495.86513728,863080000.0,Industrial Manufacturing,Act. Productiva,"Ind., Com y EF",Industria,Público,Empresas Carozzi S.A.,40800,9,2011,Act. Productiva,,,Chile,"Camino Longitudinal Sur 5201, San Bernardo, RM - Santiago, Chile",-33.67398,-70.72334
73,1000018762,No,Edificio Plaza San Damian,Av. Las Condes 11285,Santiago,Metropolitana,RM - Santiago,RM,12345,CL,LEED-CS v2009,BD+C,69,Gold,04/05/2015,5,2015,Yes,"Investor: REIT,Non-traded",1117329200,10380.327936076801,437950000.0,Office: Other Office,Equip. Servicios,"Ind., Com y EF",Servicios,Público,Inmobiliaria Plaza Constitucion S.A.,40806,9,2011,Equip. Servicios,,,Chile,"Av. Las Condes 11285, Santiago, RM - Santiago, Chile",-33.37724,-70.52685
74,1000018822,No,Edificio Ombu,Andres Bello 2115,Santiago,Metropolitana,RM - Santiago,RM,7510079,CL,LEED-CS v2009,BD+C,52,Silver,15/01/2013,1,2013,Yes,Investor: Investment Manager,428030000,3976.52882112,114200000.0,Office: Administrative/Professional,Equip. Servicios,"Ind., Com y EF",Servicios,Público,Inmobiliaria Almagro OMBU S.A.,40808,9,2011,Equip. Servicios,,,Chile,"Andres Bello 2115, Santiago, RM - Santiago, Chile",-33.42115,-70.61237
75,1000019473,No,Oficinas BHp Billiton Pampa Norte piso 6,Esmeralda 340,Iquique,Tarapacá,I - Iquique,I,1100000,CL,LEED-CI v2009,ID+C,53,Silver,25/09/2012,9,2012,Yes,Corporate: Privately Held,48060000,446.49201024,,Office: Administrative/Professional,Equip. Servicios,"Ind., Com y EF",Servicios,Público,BHP Billiton Inc.,40834,10,2011,Equip. Servicios,,,Chile,"Esmeralda 340, Iquique, I - Iquique, Chile",-20.21139,-70.15151
76,1000019884,No,Centro Civico,Camino Longitudinal 5201,San Bernardo,Metropolitana,RM - Santiago,RM,8050000,CL,LEED-NC v2009,BD+C,61,Gold,04/06/2013,6,2013,Yes,Corporate: Publicly Traded,2501490000,23239.60255296,1122950000.0,Industrial Manufacturing,Act. Productiva,"Ind., Com y EF",Industria,Público,Empresas Carozzi S.A.,40849,11,2011,Act. Productiva,,,Chile,"Camino Longitudinal 5201, San Bernardo, RM - Santiago, Chile",-33.5207759,-70.5421597
78,1000020395,No,AULARIO UDP,Av. Ejercito 326,Santiago,Metropolitana,RM - Santiago,RM,8370110,CL,LEED FOR SCHOOLS v2009,BD+C,60,Gold,06/10/2015,10,2015,Yes,"Educational: University, Private",707434500,6572.281565088,99070000.0,Core Learning Space: College/University,Equip. Educación,Servicios,Educación,Público,Edificio Verde S.A.,40873,11,2011,Equip. Educación,,,Chile,"Av. Ejercito 326, Santiago, RM - Santiago, Chile",-33.4510237,-70.6605071
79,1000020491,No,Edificio Genesis,Apoquindo 6550,Santiago,Metropolitana,RM - Santiago,RM,7560903,CL,LEED-CS v2009,BD+C,73,Gold,10/03/2016,3,2016,Yes,"Investor: REIT,Non-traded",2816596500,26167.037730336,326650000.0,Office: Mixed-Use,Equip. Servicios,"Ind., Com y EF",Servicios,Público,Inmobiliaria Apoquindo Oriente 4 S.A,40877,11,2011,Equip. Servicios,,,Chile,"Apoquindo 6550, Santiago, RM - Santiago, Chile",-33.40753,-70.56301
80,1000020631,No,Edificio El Vergel,Holandesa 0980,Temuco,De la Araucanía,IX - Temuco,IX,4810367,CL,LEED-NC v2009,BD+C,55,Silver,18/11/2013,11,2013,Yes,Investor: Individual/Family,490290000,4554.94314816,229050000.0,Multi-Family Residential: Apartment,Residencial,Vivienda,Residencial,Residencial,Dadelco,40883,12,2011,Residencial,,,Chile,"Holandesa 0980, Temuco, IX - Temuco, Chile",-38.73621,-72.61748
81,1000020669,No,Torre Capital,Antonio Varas 989,Temuco,De la Araucanía,IX - Temuco,IX,4780000,CL,LEED-CS v2009,BD+C,52,Silver,20/04/2015,4,2015,Yes,"Investor: REIT,Non-traded",1366520000,12695.38622208,162790000.0,Office: Other Office,Equip. Servicios,"Ind., Com y EF",Servicios,Público,Inmobiliaria Herneder LTDA,40883,12,2011,Equip. Servicios,,,Chile,"Antonio Varas 989, Temuco, IX - Temuco, Chile",-38.74065,-72.58858
82,1000021650,No,MALL PLAZA COPIAPO,Av. Copayapu Sur Con Maipu,Copiapo,Atacama,III - Copiapo,III,1530000,CL,LEED-CS v2009,BD+C,63,Gold,07/08/2018,8,2018,Yes,Investor: Investment Manager,6228192400,57861.8007664896,8044400000.0,Retail: Enclosed Mall,Equip. Comercio,"Ind., Com y EF",Mall,Comercial,MALL PLAZA S.A.,40923,1,2012,Equip. Comercio,,,Chile,"Av. Copayapu Sur Con Maipu, Copiapo, III - Copiapo, Chile",-27.36885,-70.3373
84,1000022400,No,Edificio Pastas,Camino Longitudinal Sur 5201,San Bernardo,Metropolitana,RM - Santiago,RM,8050000,CL,LEED-NC v2009,BD+C,63,Gold,23/07/2013,7,2013,Yes,Corporate: Publicly Traded,1764740000,16394.97108096,3870240000.0,Industrial Manufacturing,Act. Productiva,"Ind., Com y EF",Industria,Público,Empresas Carozzi S.A.,40953,2,2012,Act. Productiva,,,Chile,"Camino Longitudinal Sur 5201, San Bernardo, RM - Santiago, Chile",-33.67398,-70.72334
85,1000022551,No,NUEVA APOQUINDO Torre 3,Avda. Apoquindo 4820,Las Condes,Metropolitana,RM - Santiago,RM,7560968,CL,LEED-CS v2009,BD+C,64,Gold,12/08/2014,8,2014,Yes,Investor: Investment Manager,2425365700,22532.384664172798,278350000.0,Office: Mixed-Use,Equip. Servicios,"Ind., Com y EF",Servicios,Público,Inmobiliaria Y Constructora Nueva Apoqu,40960,2,2012,Equip. Servicios,,,Chile,"Avda. Apoquindo 4820, Las Condes, RM - Santiago, Chile",-33.41192,-70.57866
86,1000022774,No,NUEVA APOQUINDO Torre 1,Av Los Militares 4775,Las Condes,Metropolitana,RM - Santiago,RM,7560968,CL,LEED-CS v2009,BD+C,57,Silver,22/09/2014,9,2014,Yes,Investor: Investment Manager,3727588300,34630.428493843196,529580000.0,Office: Mixed-Use,Equip. Servicios,"Ind., Com y EF",Servicios,Público,Inmobiliaria Y Constructora Nueva Apoqui,40969,3,2012,Equip. Servicios,,,Chile,"Av Los Militares 4775, Las Condes, RM - Santiago, Chile",-33.4115815,-70.5802911
87,1000022836,No,PARQUE TITANIUM TORRE B,Av. Andres Bello 2772,Santiago,Metropolitana,RM - Santiago,RM,12345,CL,LEED-CS v2009,BD+C,64,Gold,19/05/2015,5,2015,Yes,Investor: Investment Manager,2725370000,25319.51581248,585970000.0,Office: Administrative/Professional,Equip. Servicios,"Ind., Com y EF",Servicios,Público,Parque Titanium S.A.,40972,3,2012,Equip. Servicios,,,Chile,"Av. Andres Bello 2772, Santiago, RM - Santiago, Chile",-33.4134426,-70.6047881
88,1000023800,No,EDIFICIO BELLET,PEREZ VALENZUELA 1635,SANTIAGO,Metropolitana,RM - Santiago,RM,7500028,CL,LEED-CS v2009,BD+C,64,Gold,29/01/2014,1,2014,Yes,Investor: Investment Manager,1036536600,9629.7401211264,195060000.0,Office: Mixed-Use,Equip. Servicios,"Ind., Com y EF",Servicios,Público,Inmobiliaria Las Pataguas Ltda,41010,4,2012,Equip. Servicios,,,Chile,"PEREZ VALENZUELA 1635, SANTIAGO, RM - Santiago, Chile",-33.42423,-70.61894
89,1000023861,No,AB Kupfer Showroom,Avenida Presidente Kennedy 7818,Santiago,Metropolitana,RM - Santiago,RM,7650558,CL,LEED-NC Retail v2009,BD+C,56,Silver,26/09/2013,9,2013,Yes,Investor: Individual/Family,52186900,484.8321658176,76660000.0,Retail: Other Retail,Equip. Comercio,"Ind., Com y EF",Comercial,Comercial,AB KUPFER,41012,4,2012,Equip. Comercio,,,Chile,"Avenida Presidente Kennedy 7818, Santiago, RM - Santiago, Chile",-33.39148,-70.55405
90,1000024347,No,Edificio Costanera Puente Suecia,"Av. Andr#s Bello 2325, Providencia",Santiago,Metropolitana,RM - Santiago,RM,7510010,CL,LEED-CS v2009,BD+C,58,Silver,11/09/2014,9,2014,Yes,"Investor: REIT,Non-traded",1095951200,10181.7198171648,211700000.0,Office: Other Office,Equip. Servicios,"Ind., Com y EF",Servicios,Público,ENERGY ARQ,41031,5,2012,Equip. Servicios,,,Chile,"Av. Andr#s Bello 2325, Providencia, Santiago, RM - Santiago, Chile",-33.41877,-70.60911
91,1000024849,No,Mall Arauco Quilicura,Libertador Bernardo O`Higgins 581,Santiago,Metropolitana,RM - Santiago,RM,8700000,CL,LEED-CS v2009,BD+C,51,Silver,03/12/2014,12,2014,Yes,Corporate: Privately Held,2580522300,23973.8366457792,3985540000.0,Retail: Enclosed Mall,Equip. Comercio,"Ind., Com y EF",Mall,Comercial,Inversiones Parque Arauco S.A.,41052,5,2012,Equip. Comercio,,,Chile,"Libertador Bernardo O`Higgins 581, Santiago, RM - Santiago, Chile",-33.50268,-70.772
92,1000024892,No,Edificio MGV,Espoz 3150,Santiago,Metropolitana,RM - Santiago,RM,7630264,CL,LEED-CS v2009,BD+C,64,Gold,05/10/2015,10,2015,Yes,Investor: Individual/Family,850476000,7901.1805847040005,433140000.0,Office: Mixed-Use,Equip. Servicios,"Ind., Com y EF",Servicios,Público,Megeve,41054,5,2012,Equip. Servicios,,,Chile,"Espoz 3150, Santiago, RM - Santiago, Chile",-33.39684,-70.59866
93,1000024923,No,EDIFICIO NUEVA MACKENNA,General Mackenna 1459,Santiago,Metropolitana,RM - Santiago,RM,8340176,CL,LEED-CS v2009,BD+C,60,Gold,26/08/2014,8,2014,Yes,Investor: Individual/Family,4064068100,37756.428125702405,575440000.0,Office: Mixed-Use,Equip. Servicios,"Ind., Com y EF",Servicios,Público,Comunidad Inmobiliaria Parque Real,41054,5,2012,Equip. Servicios,,,Chile,"General Mackenna 1459, Santiago, RM - Santiago, Chile",-33.4331051,-70.6584413
94,1000024945,No,Edificio Oficinas Plaza Manquehue,Avenida Manquehue 160 Las Condes,Santiago,Metropolitana,RM - Santiago,RM,0,CL,LEED-CS v2009,BD+C,71,Gold,12/03/2018,3,2018,Yes,Investor: Investment Manager,2156135800,20031.1570472832,527440000.0,Office: Other Office,Equip. Servicios,"Ind., Com y EF",Servicios,Público,Celfin Capital,41057,5,2012,Equip. Servicios,,,Chile,"Avenida Manquehue 160 Las Condes, Santiago, RM - Santiago, Chile",-33.40780764246286,-70.56777495658264
95,1000025002,No,Edificio Jardines de Las Condes Oficinas,Las Condes 9460,Santiago,Metropolitana,RM - Santiago,RM,7591092,CL,LEED-CS v2009,BD+C,56,Silver,23/07/2014,7,2014,Yes,Investor: Investment Manager,1877062500,17438.481252,445410000.0,Office: Administrative/Professional,Equip. Servicios,"Ind., Com y EF",Servicios,Público,Bersa Inmobiliaria,41059,5,2012,Equip. Servicios,,,Chile,"Las Condes 9460, Santiago, RM - Santiago, Chile",-33.38847,-70.54002
96,1000025116,No,Parque San Damian EDIFICIO 1,Las Hualtatas 11.740,Santiago,Metropolitana,RM - Santiago,RM,765002,CL,LEED-NC v2009,BD+C,58,Silver,03/09/2018,9,2018,Yes,Investor: Investment Manager,1089069900,10117.7904482496,243700000.0,Multi-Family Residential: Apartment,Residencial,Vivienda,Residencial,Residencial,EC Moller Y Perez Cotapos S.A.,41063,6,2012,Residencial,,,Chile,"Las Hualtatas 11.740, Santiago, RM - Santiago, Chile",-33.39296,-70.56811
97,1000025239,No,Edificio Santa Ana,Catredral 1575,Santiago,Metropolitana,RM - Santiago,RM,8340309,CL,LEED-CS v2009,BD+C,59,Silver,15/11/2016,11,2016,Yes,Investor: Investment Manager,1365009000,12681.348572736,238930000.0,Office: Mixed-Use,Equip. Servicios,"Ind., Com y EF",Servicios,Público,Inversiones Y Rentas Ingevec,41066,6,2012,Equip. Servicios,,,Chile,"Catredral 1575, Santiago, RM - Santiago, Chile",-33.4625603,-70.656011
98,1000026918,No,Edificio Torre del Sol,Calle Cha#arcillo 831,Copiapo,Atacama,III - Copiapo,III,1530409,CL,LEED-NC v2009,BD+C,61,Gold,23/07/2014,7,2014,Yes,"Investor: REIT,Non-traded",1138525700,10577.2498648128,268250000.0,Office: Other Office,Equip. Servicios,"Ind., Com y EF",Servicios,Público,ENERGY ARQ,41150,8,2012,Equip. Servicios,,,Chile,"Calle Cha#arcillo 831, Copiapo, III - Copiapo, Chile",-27.3702643,-70.3325258
99,1000027513,No,Flor de Azucenas,"Flor De Azucenas N#111, Las Condes",Santiago,Metropolitana,RM - Santiago,RM,7560911,CL,LEED-CS v2009,BD+C,81,Platinum,04/06/2015,6,2015,Yes,Corporate: Privately Held,838070000,7785.92507328,237070000.0,Office: Administrative/Professional,Equip. Servicios,"Ind., Com y EF",Servicios,Público,Eurocorp,41178,9,2012,Equip. Servicios,,,Chile,"Flor De Azucenas N#111, Las Condes, Santiago, RM - Santiago, Chile",-33.54465,-70.6067
101,1000027966,No,HPV Hotel Hyatt Place,Av. Americo Vespucio 1597,Santiago,Metropolitana,RM - Santiago,RM,7630293,CL,LEED-NC v2009,BD+C,43,Certified,27/02/2015,2,2015,Yes,,1215038600,11288.0779657344,570660000.0,"Lodging: Hotel/Motel/Resort, Limited Service",Residencial,"Ind., Com y EF",Residencial,Residencial,Corpgroup,41200,10,2012,Residencial,,,Chile,"Av. Americo Vespucio 1597, Santiago, RM - Santiago, Chile",-33.3738051,-70.7214108
102,1000027967,No,HPV Office Building,Av. Americo Vespucio 1597,Santiago,Metropolitana,RM - Santiago,RM,7630293,CL,LEED-CS v2009,BD+C,51,Silver,08/01/2015,1,2015,Yes,,925377200,8597.0355026688,570660000.0,Office: Other Office,Equip. Servicios,"Ind., Com y EF",Servicios,Público,Compania De Seguros Coprseguros,41200,10,2012,Equip. Servicios,,,Chile,"Av. Americo Vespucio 1597, Santiago, RM - Santiago, Chile",-33.3738051,-70.7214108
103,1000028160,No,Parque Titanium Torre A,Av. Andr#s Bello #2782,Santiago,Metropolitana,RM - Santiago,RM,7550659,CL,LEED-CS v2009,BD+C,70,Gold,06/12/2016,12,2016,Yes,Investor: Investment Manager,2985767000,27738.683103167998,777600000.0,Office: Mixed-Use,Equip. Servicios,"Ind., Com y EF",Servicios,Público,Inmobiliaria Parque Titanium S.A.,41210,10,2012,Equip. Servicios,,,Chile,"Av. Andr#s Bello #2782, Santiago, RM - Santiago, Chile",-33.413402,-70.60476
104,1000028164,No,Edificio Apoquindo Office,Av. Apoquindo N# 2930,Las Condes,Metropolitana,RM - Santiago,RM,7550647,CL,LEED-CS v2009,BD+C,62,Gold,5/16/2019,5,2019,Yes,Investor: Investment Manager,796248700,7397.3924826048,135410000.0,Office: Mixed-Use,Equip. Servicios,"Ind., Com y EF",Servicios,Público,Inmobiliaria Apoquindo Office S.A,41210,10,2012,Equip. Servicios,,,Chile,"Av. Apoquindo N# 2930, Las Condes, RM - Santiago, Chile",-33.417,-70.59922
105,1000028828,No,Moneda Bicentenario,Moneda 1326,Santiago,Metropolitana,RM - Santiago,RM,8340664,CL,LEED-NC v2009,BD+C,65,Gold,28/01/2015,1,2015,Yes,,3156230800,29322.343626163198,327300000.0,Office: Government,Equip. Servicios,Servicios,Servicios,Público,MOP,41242,11,2012,Equip. Servicios,,,Chile,"Moneda 1326, Santiago, RM - Santiago, Chile",-33.4424595,-70.655038
106,1000029051,No,GEOTEL Apart Calama,Cobija N#2273,Calama,Antofagasta,II - Antofagasta,II,1394290,CL,LEED-NC v2009,BD+C,47,Certified,27/01/2014,1,2014,Yes,Investor: Individual/Family,727460800,6758.3319800832,1320550000.0,Lodging: Dormitory,Residencial,"Ind., Com y EF",Residencial,Residencial,Inmobiliaria Altas Dunas S.A.,41253,12,2012,Residencial,,,Chile,"Cobija N#2273, Calama, II - Antofagasta, Chile",-22.46772,-68.93178
107,1000029052,No,GEOTEL Apart Antofagasta,Travesia De Coloso N#03463,Antofagasta,Antofagasta,II - Antofagasta,II,1271210,CL,LEED-NC v2009,BD+C,45,Certified,11/08/2015,8,2015,Yes,Investor: Individual/Family,726977900,6753.8456922816,435530000.0,Lodging: Dormitory,Residencial,"Ind., Com y EF",Residencial,Residencial,Inmobiliaria Altas Dunas Dos S.A.,41253,12,2012,Residencial,,,Chile,"Travesia De Coloso N#03463, Antofagasta, II - Antofagasta, Chile",-23.70777,-70.4263
108,1000029101,No,Edificio Centro Moneda,"Moneda 1375, Santiago",Santiago,Metropolitana,RM - Santiago,RM,8340486,CL,LEED-NC v2009,BD+C,66,Gold,21/10/2014,10,2014,Yes,Investor: Investment Manager,627848200,5832.9006438528,58730000.0,Office: Government,Equip. Servicios,Servicios,Servicios,Público,Absalon Espinosa Inmobiliaria Ltda.,41254,12,2012,Equip. Servicios,,,Chile,"Moneda 1375, Santiago, Santiago, RM - Santiago, Chile",-33.4422757,-70.6559659
109,1000029424,No,Oficinas JP Morgan,Apoquindo 2877 Floor 13 To 17,Santiago,Metropolitana,RM - Santiago,RM,7550246,CL,LEED-CI v2009,ID+C,54,Silver,10/12/2014,12,2014,Yes,Investor: Investment Manager,414617200,3851.9198316288002,,Office: Administrative/Professional,Equip. Servicios,"Ind., Com y EF",Servicios,Público,JP Morgan,41270,12,2012,Equip. Servicios,,,Chile,"Apoquindo 2877 Floor 13 To 17, Santiago, RM - Santiago, Chile",-33.4176859,-70.5995702
111,1000030217,No,Transelec Headquarters,"Orinoco 90, Piso 14, Las Condes",Santiago,Metropolitana,RM - Santiago,RM,7550000,CL,LEED-CI v2009,ID+C,61,Gold,28/10/2014,10,2014,Yes,Corporate: Privately Held,488300000,4536.4554431999995,,Office: Administrative/Professional,Equip. Servicios,"Ind., Com y EF",Servicios,Público,Transelec S.A.,41306,2,2013,Equip. Servicios,,,Chile,"Orinoco 90, Piso 14, Las Condes, Santiago, RM - Santiago, Chile",-33.41136,-70.579
112,1000030397,No,CEP 6000,Cerro El Plomo 6000,Santiago,Metropolitana,RM - Santiago,RM,7560623,CL,LEED-CI v2009,ID+C,66,Gold,20/01/2015,1,2015,Yes,Corporate: Privately Held,1205363100,11198.1896293824,,Office: Administrative/Professional,Equip. Servicios,"Ind., Com y EF",Servicios,Público,BHP Chile Inc,41315,2,2013,Equip. Servicios,,,Chile,"Cerro El Plomo 6000, Santiago, RM - Santiago, Chile",-33.40414,-70.5703
113,1000031189,No,Edificio GUSTAVO V        mn,Gustavo V 150,Santiago,Metropolitana,RM - Santiago,RM,7550000,CL,LEED-NC v2009,BD+C,56,Silver,12/04/2016,4,2016,Yes,Investor: Individual/Family,1276144900,11855.7740690496,307200000.0,Multi-Family Residential: Apartment,Residencial,Vivienda,Residencial,Residencial,Molina Morel Inmobiliaria Y Constructora,41344,3,2013,Residencial,,,Chile,"Gustavo V 150, Santiago, RM - Santiago, Chile",-33.4062908,-70.5629106
114,1000031295,No,Edificio Alcantara 99,"Alcantara 99, Las Condes",Santiago,Metropolitana,RM - Santiago,RM,7550174,CL,LEED-CS v2009,BD+C,55,Silver,29/10/2014,10,2014,Yes,Investor: Investment Manager,1624678300,15093.755309203201,312260000.0,Office: Mixed-Use,Equip. Servicios,"Ind., Com y EF",Servicios,Público,FFV,41348,3,2013,Equip. Servicios,,,Chile,"Alcantara 99, Las Condes, Santiago, RM - Santiago, Chile",-33.42793,-70.58462
115,1000031563,No,Edificio Nueva Santa Maria,Los Conquistadores 1730,Santiago,Metropolitana,RM - Santiago,RM,7520282,CL,LEED-CS v2009,BD+C,56,Silver,15/03/2018,3,2018,Yes,Investor: Investment Manager,3975654400,36935.0379749376,619610000.0,Office: Administrative/Professional,Equip. Servicios,"Ind., Com y EF",Servicios,Público,Inmobiliaria Nueva Santa MarYa S.A.,41360,3,2013,Equip. Servicios,,,Chile,"Los Conquistadores 1730, Santiago, RM - Santiago, Chile",-33.42284,-70.6214
116,1000031570,No,Edificio Parque Oriente,Alonso de Cordova 5320,Santiago,Metropolitana,RM - Santiago,RM,7560809,CL,LEED-CS v2009,BD+C,52,Silver,26/04/2016,4,2016,Yes,Investor: Investment Manager,2487723600,23111.7085119744,509070000.0,Office: Administrative/Professional,Equip. Servicios,"Ind., Com y EF",Servicios,Público,C. E I. Del Parque Dos S.A.,41361,3,2013,Equip. Servicios,,,Chile,"Alonso de Cordova 5320, Santiago, RM - Santiago, Chile",-33.4062938,-70.5751952
117,1000031619,No,I-APT NUNOA,Holanda 3705,Santiago,Metropolitana,RM - Santiago,RM,7790931,CL,LEED-NC v2009,BD+C,56,Silver,06/08/2015,8,2015,Yes,Corporate: Publicly Traded,1118104400,10387.5297797376,410760000.0,Multi-Family Residential: Apartment,Residencial,Vivienda,Residencial,Residencial,Inmobiliaria Paz S.P.A.,41365,4,2013,Residencial,,,Chile,"Holanda 3705, Santiago, RM - Santiago, Chile",-33.45291,-70.59632
118,1000032029,No,Edificio Don Elias,Chacabuco 681,Copiapo,Atacama,III - Copiapo,III,1530510,CL,LEED-CS v2009,BD+C,50,Silver,20/12/2016,12,2016,Yes,"Investor: REIT,Non-traded",981540000,9118.80498816,138880000.0,Office: Mixed-Use,Equip. Servicios,"Ind., Com y EF",Servicios,Público,Inmobiliaria & Constructora Don Elias,41380,4,2013,Equip. Servicios,,,Chile,"Chacabuco 681, Copiapo, III - Copiapo, Chile",-27.3639819,-70.3307424
119,1000032170,No,Hotel Cumbres Vitacura,"Avenida Kennedy 4420, Vitacura",Santiago,Metropolitana,RM - Santiago,RM,7630638,CL,LEED-NC v2009,BD+C,42,Certified,08/11/2016,11,2016,Yes,Investor: Investment Manager,1795090000,16676.93180736,406190000.0,"Lodging: Hotel/Motel/Resort, Full Service",Residencial,"Ind., Com y EF",Residencial,Residencial,Inversiones Centro Sur S.A,41386,4,2013,Residencial,,,Chile,"Avenida Kennedy 4420, Vitacura, Santiago, RM - Santiago, Chile",-33.4036022,-70.5860814
120,1000032989,No,Edificio Comedor GNL Quintero SA,Camino Costero 901,Quintero,Valparaíso,V - Valparaiso,V,0,CL,LEED-NC v2009,BD+C,63,Gold,21/02/2017,2,2017,Yes,Corporate: Privately Held,53810000,499.91125824,443470000.0,Public Assembly: Other Assembly,Equip. Comercio,Servicios,Comercial,Público,GNL Quintero SA,41422,5,2013,Equip. Comercio,,,Chile,"Camino Costero 901, Quintero, V - Valparaiso, Chile",-32.77939,-71.4994384
121,1000033817,No,Planta Industrial Gino,Av. Miraflores 1022,Santiago,Metropolitana,RM - Santiago,RM,8640000,CL,LEED-NC v2009,BD+C,59,Silver,18/07/2016,7,2016,Yes,Corporate: Privately Held,2494145100,23171.3661991104,4570110000.0,Industrial Manufacturing,Act. Productiva,"Ind., Com y EF",Industria,Público,Inmobiliaria Muskiz SA,41456,7,2013,Act. Productiva,,,Chile,"Av. Miraflores 1022, Santiago, RM - Santiago, Chile",-33.60099393155914,-70.86229151373765
122,1000033848,No,Hotel Cumbres Lastarria,Av. Jose Victorino Lastarria 293-299,Santiago,Metropolitana,RM - Santiago,RM,8320126,CL,LEED-NC v2009,BD+C,48,Certified,09/11/2015,11,2015,Yes,Investor: Investment Manager,643374200,5977.1419037568,89580000.0,"Lodging: Hotel/Motel/Resort, Full Service",Residencial,"Ind., Com y EF",Residencial,Residencial,Inmobiliaria Inversiones Lastarria S.A.,41457,7,2013,Residencial,,,Chile,"Av. Jose Victorino Lastarria 293-299, Santiago, RM - Santiago, Chile",-33.4378,-70.64095
123,1000034244,No,Edificio Team Office Guardia Vieja,Guardia Vieja 188,Santiago,Metropolitana,RM - Santiago,RM,7510188,CL,LEED-CS v2009,BD+C,52,Silver,13/11/2017,11,2017,Yes,Investor: Individual/Family,722153100,6709.0218335424,74840000.0,Office: Mixed-Use,Equip. Servicios,"Ind., Com y EF",Servicios,Público,Deisa Inmobiliaria,41477,7,2013,Equip. Servicios,,,Chile,"Guardia Vieja 188, Santiago, RM - Santiago, Chile",-33.4241819,-70.6099924
124,1000034925,No,CITYPARK II,AV. EL SALTO 5000 ESQUINA AV. SANTA CLARA,Santiago,Metropolitana,RM - Santiago,RM,8580666,CL,LEED-CS v2009,BD+C,48,Certified,03/07/2015,7,2015,Yes,,1148989400,10674.4608187776,436380000.0,Office: Administrative/Professional,Equip. Servicios,"Ind., Com y EF",Servicios,Público,Inversiones Urbanas,41505,8,2013,Equip. Servicios,,,Chile,"AV. EL SALTO 5000 ESQUINA AV. SANTA CLARA, Santiago, RM - Santiago, Chile",-33.3802,-70.63856
125,1000035016,No,Edificio Los Militares,Av. Apoquindo 4660,Santiago,Metropolitana,RM - Santiago,RM,7560969,CL,LEED-CS v2009,BD+C,56,Silver,20/07/2015,7,2015,Yes,Investor: Investment Manager,1817755200,16887.4984055808,237800000.0,Office: Administrative/Professional,Equip. Servicios,"Ind., Com y EF",Servicios,Público,Constructora Mena Y Ovalle,41509,8,2013,Equip. Servicios,,,Chile,"Av. Apoquindo 4660, Santiago, RM - Santiago, Chile",-33.41299,-70.582
126,1000035023,No,Edificio Costanera Lyon II,Andres Bello 2233,Santiago,Metropolitana,RM - Santiago,RM,7510056,CL,LEED-CS v2009,BD+C,60,Gold,30/01/2015,1,2015,Yes,Non-Profit (that do not fit into ot,1421641300,13207.4798559552,257180000.0,Office: Mixed-Use,Equip. Servicios,"Ind., Com y EF",Servicios,Público,Inmobiliaria Almahue,41509,8,2013,Equip. Servicios,,,Chile,"Andres Bello 2233, Santiago, RM - Santiago, Chile",-33.41982,-70.6104
127,1000035067,No,Caja de Compensacion Los Andes Maipu,Luis Gandarillas 359,Santiago,Metropolitana,RM - Santiago,RM,9251099,CL,LEED-NC v2009,BD+C,61,Gold,12/01/2018,1,2018,Yes,Investor: Pension Fund,153508300,1426.1387735232001,170700000.0,Office: Mixed-Use,Equip. Servicios,"Ind., Com y EF",Servicios,Público,Caja De Compensacion Los Andes,41513,8,2013,Equip. Servicios,,,Chile,"Luis Gandarillas 359, Santiago, RM - Santiago, Chile",-33.50365,-70.75336
128,1000035069,No,Caja de Compensacion Los Andes Vina,Calle Viana 609,Vina Del Mar,Valparaíso,V - Valparaiso,V,0,CL,LEED-NC v2009,BD+C,60,Gold,16/11/2018,11,2018,Yes,Investor: Pension Fund,562620000,5226.91083648,112620000.0,Office: Mixed-Use,Equip. Servicios,"Ind., Com y EF",Servicios,Público,CCAF Los Andes,41513,8,2013,Equip. Servicios,,,Chile,"Calle Viana 609, Vina Del Mar, V - Valparaiso, Chile",-33.0258415,-71.5538405
129,1000035074,No,Edificio Nueva Las Condes,Avenida Presidente Riesco 5537,Santiago,Metropolitana,RM - Santiago,RM,7561127,CL,LEED-CS v2009,BD+C,65,Gold,24/07/2015,7,2015,Yes,Investor: Investment Manager,3803440000,35335.11384576,435420000.0,Office: Administrative/Professional,Equip. Servicios,"Ind., Com y EF",Servicios,Público,Constructora E Inmobiliaria NLC 7 S.A.,41513,8,2013,Equip. Servicios,,,Chile,"Avenida Presidente Riesco 5537, Santiago, RM - Santiago, Chile",-33.4045369,-70.5745237
130,1000035498,No,Alto El Golf,Av. Vitacura 2969,Santiago,Metropolitana,RM - Santiago,RM,7660061,CL,LEED-CS v2009,BD+C,53,Silver,28/08/2014,8,2014,Yes,"Investor: REIT,Non-traded",1540949300,14315.8874455872,256880000.0,Commercial Office,Equip. Servicios,"Ind., Com y EF",Servicios,Público,TERRITORIA LUZ S.A.,41530,9,2013,Equip. Servicios,,,Chile,"Av. Vitacura 2969, Santiago, RM - Santiago, Chile",-33.4099,-70.60194
131,1000035999,No,Aconcagua Tamarugo,Las Fresas 4578,Santiago,Metropolitana,RM - Santiago,RM,7630294,CL,LEED-NC v2009,BD+C,57,Silver,09/09/2015,9,2015,Yes,"Investor: REIT,Non-traded",629565400,5848.8539538816,255140000.0,Multi-Family Residential: Apartment,Residencial,Vivienda,Residencial,Residencial,ACONCAGUA,41551,10,2013,Residencial,,,Chile,"Las Fresas 4578, Santiago, RM - Santiago, Chile",-33.3999784,-70.5853939
133,1000036660,No,Nike Store Plaza Egana,Av. Ossa 123,Santiago,Metropolitana,RM - Santiago,RM,7870151,CL,LEED-CI Retail v2009,ID+C,51,Silver,01/12/2015,12,2015,Yes,Corporate: Publicly Traded,54450000,505.8570528,,Retail: Enclosed Mall,Equip. Comercio,"Ind., Com y EF",Mall,Comercial,Nike De Chile Ltda.,41576,10,2013,Equip. Comercio,,,Chile,"Av. Ossa 123, Santiago, RM - Santiago, Chile",-33.4525753,-70.5705211
134,1000036828,No,Juzgado de Familia de Yumbel,General Cruz 860,Yumbel,Del Bío Bío,VIII - ConcepciÂ¾n,VIII,4580000,CL,LEED-NC v2009,BD+C,80,Platinum,08/08/2016,8,2016,Yes,Government Use: Federal,76655300,712.1510402112,160930000.0,Public Order and Safety: Other Public Order,Equip. Servicios,Servicios,Servicios,Público,Corporacion Admin Del Poder Judicial,41584,11,2013,Equip. Seguridad,,,Chile,"General Cruz 860, Yumbel, VIII - ConcepciÂ¾n, Chile",-36.818422,-73.0522251
135,1000036830,No,Centro Judicial de Antofagasta,Avenida San Martin 2972,Antofagasta,Antofagasta,II - Antofagasta,II,1243339,CL,LEED-NC v2009,BD+C,61,Gold,10/30/2019,10,2019,Yes,"Government Use: Local, City",1243336000,11550.969414144,263190000.0,Office: Government,Equip. Servicios,Servicios,Servicios,Público,Corporacion Administrativa Poder Judicia,41584,11,2013,Equip. Servicios,,,Chile,"Avenida San Martin 2972, Antofagasta, II - Antofagasta, Chile",-23.644604,-70.3944037
136,1000036848,No,Centro Judicial de Puente Alto,"Av. Domingo Tocornal 143, Puente Alto",Santiago,Metropolitana,RM - Santiago,RM,8167383,CL,LEED-NC v2009,BD+C,62,Gold,7/19/2019,7,2019,Yes,"Government Use: Local, County",777987500,7227.7403832,836360000.0,Office: Government,Equip. Servicios,Servicios,Servicios,Público,Corporaci_n Admin. Poder Judicial,41584,11,2013,Equip. Servicios,,,Chile,"Av. Domingo Tocornal 143, Puente Alto, Santiago, RM - Santiago, Chile",-33.60303,-70.57886
137,1000036850,No,Juzgado de Familia de Pudahuel,"San Pablo 4455, Quinta Normal",Santiago,Metropolitana,RM - Santiago,RM,8340309,CL,LEED-NC v2009,BD+C,64,Gold,02/02/2017,2,2017,Yes,"Government Use: Local, County",452406600,4202.9948456064,382140000.0,Office: Government,Equip. Servicios,Servicios,Servicios,Público,Corporaci_n Admin. Poder Judicial,41584,11,2013,Equip. Servicios,,,Chile,"San Pablo 4455, Quinta Normal, Santiago, RM - Santiago, Chile",-33.43874985155467,-70.69573167958436
138,1000036851,No,Juzgado de Letras y Garantia de Tolten,"Pedro Aguirre Cerda 520, Tolten",Tolten,De la Araucanía,IX - Temuco,IX,4980000,CL,LEED-NC v2009,BD+C,62,Gold,20/09/2016,9,2016,Yes,"Government Use: Local, County",104690700,972.6084289728,95910000.0,Office: Government,Equip. Servicios,Servicios,Servicios,Público,Corporaci_n Admin. Poder Judicial,41584,11,2013,Equip. Servicios,,,Chile,"Pedro Aguirre Cerda 520, Tolten, Tolten, IX - Temuco, Chile",-39.17792,-73.16418
139,1000036856,No,Centro Judicial Vina del Mar,Traslavina 145 Arlegui 346 Y 350,Valparaiso,Valparaíso,V - Valparaiso,V,2571495,CL,LEED-NC v2009,BD+C,60,Gold,05/01/2018,1,2018,Yes,"Government Use: Local, City",649640000,6035.35309056,248470000.0,Office: Administrative/Professional,Equip. Servicios,Servicios,Servicios,Público,Corp Admin Poder Judicial,41584,11,2013,Equip. Servicios,,,Chile,"Traslavina 145 Arlegui 346 Y 350, Valparaiso, V - Valparaiso, Chile",-33.0264,-71.55921
140,1000036950,No,Google Headquarters Santiago,Av. AndrUs Bello 2782,Santiago,Metropolitana,RM - Santiago,RM,7550653,CL,LEED-CI v2009,ID+C,72,Gold,26/01/2016,1,2016,Yes,Corporate: Publicly Traded,187290000,1739.98103616,,Office: Administrative/Professional,Equip. Servicios,"Ind., Com y EF",Servicios,Público,Google Chile,41588,11,2013,Equip. Servicios,,,Chile,"Av. AndrUs Bello 2782, Santiago, RM - Santiago, Chile",-33.413402,-70.60476
141,1000036983,No,Centro de Innovacion 3M,Santa Isabel 1001,Santiago,Metropolitana,RM - Santiago,RM,7501412,CL,LEED-NC v2009,BD+C,44,Certified,05/10/2016,10,2016,Yes,Corporate: Privately Held,283726100,2635.9017217344,408320000.0,Office: Other Office,Equip. Servicios,"Ind., Com y EF",Servicios,Público,3M,41590,11,2013,Equip. Servicios,,,Chile,"Santa Isabel 1001, Santiago, RM - Santiago, Chile",-33.44562,-70.61737
142,1000037015,No,Indumotora A1,"Ruta 5 Norte, N# 19990, Km.19, Lampa",Santiago,Metropolitana,RM - Santiago,RM,9380000,CL,LEED-NC v2009,BD+C,47,Certified,16/01/2015,1,2015,Yes,,44692700,415.20876958080004,116030000.0,Retail: Vehicle Dealership,Equip. Comercio,"Ind., Com y EF",Comercial,Comercial,Indumotora,41591,11,2013,Equip. Comercio,,,Chile,"Ruta 5 Norte, N# 19990, Km.19, Lampa, Santiago, RM - Santiago, Chile",-33.44056,-70.65994
143,1000037071,No,Ingetasco Bucarest,Bucarest 150,Santiago,Metropolitana,RM - Santiago,RM,7510018,CL,LEED-CS v2009,BD+C,62,Gold,16/08/2016,8,2016,Yes,Corporate: Privately Held,1464762000,13608.084267648,263270000.0,Office: Other Office,Equip. Servicios,"Ind., Com y EF",Servicios,Público,Inmobiliaria Ingetasco S.A,41592,11,2013,Equip. Servicios,,,Chile,"Bucarest 150, Santiago, RM - Santiago, Chile",-33.41908,-70.60854
144,1000037072,No,Ingetasco Suecia,Suecia 0155,Santiago,Metropolitana,RM - Santiago,RM,7510018,CL,LEED-CS v2009,BD+C,63,Gold,21/09/2015,9,2015,Yes,Corporate: Privately Held,862091200,8009.0893237248,169440000.0,Office: Other Office,Equip. Servicios,"Ind., Com y EF",Servicios,Público,Constructora Ingetasco LTDA,41592,11,2013,Equip. Servicios,,,Chile,"Suecia 0155, Santiago, RM - Santiago, Chile",-33.41952,-70.6088
145,1000037575,No,Isabel La Catolica,Isabel La Catolica 4460,Santiago,Metropolitana,RM - Santiago,RM,7580049,CL,LEED-NC v2009,BD+C,51,Silver,01/02/2018,2,2018,Yes,Investor: Individual/Family,2321494800,21567.3924264192,463500000.0,Multi-Family Residential: Apartment,Residencial,Vivienda,Residencial,Residencial,Molina Morel Inmobili Y Constructor Ltda,41612,12,2013,Residencial,,,Chile,"Isabel La Catolica 4460, Santiago, RM - Santiago, Chile",-33.4257,-70.57617
146,1000038147,No,Edificio Vespucio Norte,Americo Vespucio 2700,Santiago,Metropolitana,RM - Santiago,RM,7630661,CL,LEED-CS v2009,BD+C,54,Silver,10/02/2016,2,2016,Yes,Investor: Investment Manager,941190000,8743.94122176,302210000.0,Office: Administrative/Professional,Equip. Servicios,"Ind., Com y EF",Servicios,Público,Norwest,41635,12,2013,Equip. Servicios,,,Chile,"Americo Vespucio 2700, Santiago, RM - Santiago, Chile",-33.3676494,-70.6966423
147,1000038678,No,Indumotora A2,"Ruta 5 Norte, N# 19990, Km.19, Lampa",Santiago,Metropolitana,RM - Santiago,RM,9380000,CL,LEED-NC v2009,BD+C,45,Certified,16/01/2015,1,2015,Yes,,44692700,415.20876958080004,147730000.0,Retail: Vehicle Dealership,Equip. Comercio,"Ind., Com y EF",Comercial,Comercial,Indumotora,41662,1,2014,Equip. Comercio,,,Chile,"Ruta 5 Norte, N# 19990, Km.19, Lampa, Santiago, RM - Santiago, Chile",-33.44056,-70.65994
148,1000039131,No,SUCURSAL BBVA TERRITORIA EL BOSQUE,Avda. Apoquindo N# 2827 Local 7,Santiago,Metropolitana,RM - Santiago,RM,7550268,CL,LEED-CI v2009,ID+C,63,Gold,24/07/2014,7,2014,Yes,Investor: Bank,95880000,890.75434752,,Retail: Bank Branch,Equip. Servicios,"Ind., Com y EF",Financiera,Comercial,BBVA,41676,2,2014,Equip. Servicios,,,Chile,"Avda. Apoquindo N# 2827 Local 7, Santiago, RM - Santiago, Chile",-33.41784,-70.60021
149,1000040071,No,Indumotora A3,"Ruta 5 Norte, N# 19990, Km.19, Lampa",Santiago,Metropolitana,RM - Santiago,RM,9380000,CL,LEED-NC v2009,BD+C,44,Certified,09/02/2015,2,2015,Yes,,71436700,663.6686597568,135840000.0,Retail: Vehicle Dealership,Equip. Comercio,"Ind., Com y EF",Comercial,Comercial,Indumotora,41709,3,2014,Equip. Comercio,,,Chile,"Ruta 5 Norte, N# 19990, Km.19, Lampa, Santiago, RM - Santiago, Chile",-33.44056,-70.65994
150,1000040072,No,Edificio Monroy,ALONSO DE MONROY N# 2555,Santiago,Metropolitana,RM - Santiago,RM,7630000,CL,LEED-CS v2009,BD+C,53,Silver,25/01/2016,1,2016,Yes,Corporate: Privately Held,839734100,7801.3850681664,294550000.0,Office: Other Office,Equip. Servicios,"Ind., Com y EF",Servicios,Público,Ski Masters La Parva S.A,41709,3,2014,Equip. Servicios,,,Chile,"ALONSO DE MONROY N# 2555, Santiago, RM - Santiago, Chile",-33.40214,-70.59656
151,1000040097,No,Edificio Santa Ana II,Santo Domingo 1568,Santiago,Metropolitana,RM - Santiago,RM,8340312,CL,LEED-CS v2009,BD+C,60,Gold,13/09/2017,9,2017,Yes,Corporate: Privately Held,1141560000,10605.43943424,207960000.0,Office: Mixed-Use,Equip. Servicios,"Ind., Com y EF",Servicios,Público,Inmobiliaria Y Constructora Santa Ana SA,41710,3,2014,Equip. Servicios,,,Chile,"Santo Domingo 1568, Santiago, RM - Santiago, Chile",-33.43884,-70.68605
152,1000040098,No,Edificio Vespucio 1777,Americo Vespucio Norte 1777,Santiago,Metropolitana,RM - Santiago,RM,7630252,CL,LEED-CS v2009,BD+C,51,Silver,24/10/2018,10,2018,Yes,Corporate: Privately Held,494600000,4594.9843584,178470000.0,Office: Mixed-Use,Equip. Servicios,"Ind., Com y EF",Servicios,Público,Inmob. Y Const. Vespucio 1777 S.A.,41710,3,2014,Equip. Servicios,,,Chile,"Americo Vespucio Norte 1777, Santiago, RM - Santiago, Chile",-33.39808,-70.58768
153,1000041222,No,Torre Badajoz,Badajoz 45,Santiago,Metropolitana,RM - Santiago,RM,7560908,CL,LEED-CS v2009,BD+C,57,Silver,07/06/2016,6,2016,Yes,Investor: Investment Manager,2245039700,20857.101305068798,300390000.0,Office: Administrative/Professional,Equip. Servicios,"Ind., Com y EF",Servicios,Público,Inmobiliaria Badajoz S.A.,41738,4,2014,Equip. Servicios,,,Chile,"Badajoz 45, Santiago, RM - Santiago, Chile",-33.4092974,-70.5720396
154,1000041223,No,Torre Apoquindo,Av Apoquindo 5550,Santiago,Metropolitana,RM - Santiago,RM,7580012,CL,LEED-CS v2009,BD+C,58,Silver,07/06/2016,6,2016,Yes,Investor: Investment Manager,3157170800,29331.0765119232,420320000.0,Office: Administrative/Professional,Equip. Servicios,"Ind., Com y EF",Servicios,Público,Inmobiliaria Apoquindo Badajoz S.A.,41738,4,2014,Equip. Servicios,,,Chile,"Av Apoquindo 5550, Santiago, RM - Santiago, Chile",-33.40841,-70.56627
155,1000041664,No,OFICINAS BLOOMBERG CHILE,"Apoquindo 2827, Piso 18",Santiago,Metropolitana,RM - Santiago,RM,7550268,CL,LEED-CI v2009,ID+C,81,Platinum,23/07/2015,7,2015,Yes,Corporate: Privately Held,74470200,691.8507969408,,Office: Administrative/Professional,Equip. Servicios,"Ind., Com y EF",Servicios,Público,Bloomberg,41753,4,2014,Equip. Servicios,,,Chile,"Apoquindo 2827, Piso 18, Santiago, RM - Santiago, Chile",-33.41784,-70.60021
156,1000041739,No,Centro de Distribucion y Oficinas MK,Camino Noviciado s/n,Santiago,Metropolitana,RM - Santiago,RM,32707,CL,LEED-NC v2009,BD+C,63,Gold,03/11/2016,11,2016,Yes,Corporate: Privately Held,2207540000,20508.71769216,5698570000.0,Warehouse: Nonrefrigerated Distribution/Shipping,Act. Productiva,"Ind., Com y EF",Centro Distribución,Público,Comercial MK Ltda,41757,4,2014,Act. Productiva,,,Chile,"Camino Noviciado s/n, Santiago, RM - Santiago, Chile",-33.41895,-70.84089
157,1000041768,No,Falabella San Fernando,"Chillan 701, San Fernando",San Fernando,Del Libertador General Bernardo O'Higgins,VI - Rancagua,VI,3070000,CL,LEED-CI Retail v2009,ID+C,48,Certified,05/12/2016,12,2016,Yes,Corporate: Privately Held,560589100,5208.043158086401,,Retail: Other Retail,Equip. Comercio,"Ind., Com y EF",Comercial,Comercial,Falabella Retail S.A.,41758,4,2014,Equip. Comercio,,,Chile,"Chillan 701, San Fernando, San Fernando, VI - Rancagua, Chile",-34.5866706,-70.9833172
158,1000041774,No,Nova Park Hotel,Pdte. Juan Antonio R#os 59,Santiago,Metropolitana,RM - Santiago,RM,8330086,CL,LEED-NC v2009,BD+C,50,Silver,8/6/2019,8,2019,Yes,Investor: Individual/Family,652738000,6064.134452351999,79440000.0,"Lodging: Hotel/Motel/Resort, Full Service",Residencial,"Ind., Com y EF",Residencial,Residencial,Inversiones Isla Kent SpA,41758,4,2014,Residencial,,,Chile,"Pdte. Juan Antonio R#os 59, Santiago, RM - Santiago, Chile",-33.4442619,-70.646714
159,1000042427,No,Edificio Medicos Clinica Santa Maria,Bellavista 497,Santiago,Metropolitana,RM - Santiago,RM,7630294,CL,LEED-NC v2009,BD+C,50,Silver,29/04/2015,4,2015,Yes,Non-Profit (that do not fit into ot,80397600,746.9181448703999,28200000.0,Office: Medical (Non-Diagnostic),Equip. Salud,Servicios,Salud,Público,Clinica Santa Maria,41775,5,2014,Equip. Salud,,,Chile,"Bellavista 497, Santiago, RM - Santiago, Chile",-33.43174,-70.62892
160,1000043805,No,BODEGAS APL2,LAGUNA SUR 9660,Santiago,Metropolitana,RM - Santiago,RM,9061263,CL,LEED-CS v2009,BD+C,54,Silver,26/11/2014,11,2014,Yes,"Investor: REIT,Non-traded",1657700000,15400.536940799999,2905200000.0,Warehouse and Distribution Center: Self Storage Units,Act. Productiva,"Ind., Com y EF",Centro Distribución,Público,Inmobiliaria Descubrimiento S.A.,41806,6,2014,Act. Productiva,,,Chile,"LAGUNA SUR 9660, Santiago, RM - Santiago, Chile",-33.45809,-70.78064
161,1000044442,No,Edificio Tobalaba Office,Av. Tobalaba 285,Providencia,Metropolitana,RM - Santiago,RM,7550647,CL,LEED-CS v2009,BD+C,61,Gold,5/16/2019,5,2019,Yes,Investor: Investment Manager,784456900,7287.8430758976,234820000.0,Office: Mixed-Use,Equip. Servicios,"Ind., Com y EF",Servicios,Público,Inmobiliaria Tobalaba Office,41821,7,2014,Equip. Servicios,,,Chile,"Av. Tobalaba 285, Providencia, RM - Santiago, Chile",-33.42,-70.59938
162,1000045433,No,Edificio Los Jardines Uno,Av. Los Jardines 972,Santiago,Metropolitana,RM - Santiago,RM,0,CL,LEED-CS v2009,BD+C,51,Silver,25/07/2016,7,2016,Yes,"Investor: REIT,Non-traded",486630000,4520.94063552,326680000.0,Office: Mixed-Use,Equip. Servicios,"Ind., Com y EF",Servicios,Público,Inmobiliaria Y Constructora Los Jardines,41848,7,2014,Equip. Servicios,,,Chile,"Av. Los Jardines 972, Santiago, RM - Santiago, Chile",-33.38633,-70.61869
163,1000045515,No,Nueva Apoquindo Torre 2,Los Militares 4777,Santiago,Metropolitana,RM - Santiago,RM,7560968,CL,LEED-CS v2009,BD+C,52,Silver,24/11/2015,11,2015,Yes,Investor: Investment Manager,3357771100,31194.7142814144,455700000.0,Office: Mixed-Use,Equip. Servicios,"Ind., Com y EF",Servicios,Público,Inmobiliaria Y Constructora Nueva Apoqui,41851,7,2014,Equip. Servicios,,,Chile,"Los Militares 4777, Santiago, RM - Santiago, Chile",-33.4115669,-70.580267
164,1000045704,No,Oficinas Casa Costanera,"Nueva Costanera 3900, Vitacura",Santiago,Metropolitana,RM - Santiago,RM,7630299,CL,LEED-CS v2009,BD+C,46,Certified,11/11/2016,11,2016,Yes,Corporate: Privately Held,511862400,4755.3573021696,227470000.0,Office: Other Office,Equip. Servicios,"Ind., Com y EF",Servicios,Público,Corpgroup Activos Inmobiliarios,41858,8,2014,Equip. Servicios,,,Chile,"Nueva Costanera 3900, Vitacura, Santiago, RM - Santiago, Chile",-33.39861,-70.59819
165,1000045715,No,Edificio Santa Carmen de Chicureo,Carretera General San Martin 9600 B,Santiago,Metropolitana,RM - Santiago,RM,0,CL,LEED-NC v2009,BD+C,60,Gold,13/11/2015,11,2015,Yes,Investor: Individual/Family,193307400,1795.8845114495998,558470000.0,Office: Administrative/Professional,Equip. Servicios,"Ind., Com y EF",Servicios,Público,Benidorm,41858,8,2014,Equip. Servicios,,,Chile,"Carretera General San Martin 9600 B, Santiago, RM - Santiago, Chile",-33.35873,-70.69077
166,1000045911,No,Zurich Corporativo Badajoz,Badajoz 25,Santiago,Metropolitana,RM - Santiago,RM,7560908,CL,LEED-CI v2009,ID+C,63,Gold,16/01/2017,1,2017,Yes,Investor: Insurance Company,1138617000,10578.098069568001,,Office: Other Office,Equip. Servicios,"Ind., Com y EF",Servicios,Público,Zurich,41862,8,2014,Equip. Servicios,,,Chile,"Badajoz 25, Santiago, RM - Santiago, Chile",-33.4095667,-70.5719285
167,1000046684,No,Beiersdorf Edificio Envasado y Bodega,Av. Lo Espejo 501,Santiago,Metropolitana,RM - Santiago,RM,9250000,CL,LEED-NC v2009,BD+C,63,Gold,09/07/2015,7,2015,Yes,,960640000,8924.63763456,3187330000.0,Industrial Manufacturing,Act. Productiva,"Ind., Com y EF",Industria,Público, ,41879,8,2014,Act. Productiva,,,Chile,"Av. Lo Espejo 501, Santiago, RM - Santiago, Chile",-33.52069,-70.73634
168,1000046857,No,Edificio Nueva Manquehue,Avda. Apoquindo 5950,Santiago,Metropolitana,RM - Santiago,RM,0,CL,LEED-CS v2009,BD+C,64,Gold,21/09/2017,9,2017,Yes,Investor: Investment Manager,3613713000,33572.492338752,473740000.0,Office: Mixed-Use,Equip. Servicios,"Ind., Com y EF",Servicios,Público,FFV Desarrollo Inmobiliario & Isidora 23,41884,9,2014,Equip. Servicios,,,Chile,"Avda. Apoquindo 5950, Santiago, RM - Santiago, Chile",-33.40888,-70.56893
169,1000048190,No,Juzgado Familia Talagante,JosU Leyan 654,Talagante,Metropolitana,RM - Santiago,RM,9680370,CL,LEED-NC v2009,BD+C,66,Gold,10/17/2019,10,2019,Yes,"Government Use: Local, County",182790000,1698.17466816,167340000.0,Service: Other Service,Equip. Servicios,Servicios,Servicios,Público,Corporaci_n Administrativa Poder Judici,41898,9,2014,Equip. Servicios,,,Chile,"JosU Leyan 654, Talagante, RM - Santiago, Chile",-33.66409,-70.927
170,1000051977,No,Nike Factory Curauma,Av. Lomas De La Luz 4650,Placilla,Valparaíso,V - Valparaiso,V,0,CL,LEED-CI Retail v2009,ID+C,44,Certified,21/06/2017,6,2017,Yes,Corporate: Publicly Traded,112790000,1047.85338816,,Retail: Open Shopping Center,Equip. Comercio,"Ind., Com y EF",Comercial,Comercial,Nike De Chile Ltda.,41953,11,2014,Equip. Comercio,,,Chile,"Av. Lomas De La Luz 4650, Placilla, V - Valparaiso, Chile",-33.13295,-71.57486
171,1000052173,No,Vista Kennedy,Av Kennedy 7900,Santiago,Metropolitana,RM - Santiago,RM,7650558,CL,LEED-CS v2009,BD+C,61,Gold,02/10/2017,10,2017,Yes,Corporate: Privately Held,904916000,8406.944734464,281910000.0,Office: Other Office,Equip. Servicios,"Ind., Com y EF",Servicios,Público,Inmobiliaria y Constructora Baquedano Sp,41956,11,2014,Equip. Servicios,,,Chile,"Av Kennedy 7900, Santiago, RM - Santiago, Chile",-33.39154,-70.5537
172,1000053192,No,Falabella Alto Las Condes,"Av. Kennedy 9001, Las Condes",Santiago,Metropolitana,RM - Santiago,RM,7591567,CL,LEED-CI Retail v2009,ID+C,53,Silver,15/08/2017,8,2017,Yes,Corporate: Privately Held,1474180000,13695.58035072,,Retail: Other Retail,Equip. Comercio,"Ind., Com y EF",Comercial,Comercial,Falabella Retail S.A.,41991,12,2014,Equip. Comercio,,,Chile,"Av. Kennedy 9001, Las Condes, Santiago, RM - Santiago, Chile",-33.3936401,-70.5444858
173,1000053193,No,Falabella Castro,"San Martin 547, Castro Chiloe",Castro,Los Lagos,X - Puerto Montt,X,5700000,CL,LEED-CI Retail v2009,ID+C,53,Silver,22/05/2017,5,2017,Yes,Corporate: Privately Held,387928100,3603.9699791424,,Retail: Other Retail,Equip. Comercio,"Ind., Com y EF",Comercial,Comercial,Falabella Retail S.A.,41991,12,2014,Equip. Comercio,,,Chile,"San Martin 547, Castro Chiloe, Castro, X - Puerto Montt, Chile",-41.4612141,-72.9327314
174,1000054832,No,Edificio Residencial Trilogia Sur,Avenida Jaime GuzmÃ¡n ErrÃ¡zuriz 04300,Antofagasta,Antofagasta,II - Antofagasta,II,0,CL,LEED-NC v2009,BD+C,50,Silver,16/06/2017,6,2017,Yes,"Government Use: Local, County",1615266900,15006.3205421376,395210000.0,Multi-Family Residential: Apartment,Residencial,Vivienda,Residencial,Residencial,Inmobilia Chile,42041,2,2015,Residencial,,,Chile,"Avenida Jaime GuzmÃ¡n ErrÃ¡zuriz 04300, Antofagasta, II - Antofagasta, Chile",-23.72797,-70.43714
175,1000056620,No,Oficina SMA,Teatinos 280 Piso 8 y 9,Santiago,Metropolitana,RM - Santiago,RM,8340434,CL,LEED-CI v2009,ID+C,52,Silver,24/07/2017,7,2017,Yes,Government Use: Federal,228348800,2121.4297700352,,Office: Government,Equip. Servicios,Servicios,Servicios,Público,Superintendencia del Medio Ambiente,42101,4,2015,Equip. Servicios,,,Chile,"Teatinos 280 Piso 8 y 9, Santiago, RM - Santiago, Chile",-33.43828,-70.65547
176,1000057007,No,DATA CENTER GTD LIDICE 2,"Pasaje Lidice 652, Santiago",Santiago,Metropolitana,RM - Santiago,RM,8320042,CL,LEED-NC v2009,BD+C,70,Gold,08/07/2018,7,2018,Yes,Corporate: Privately Held,357280000,3319.23981312,65450000.0,Data Center,Equip. Servicios,"Ind., Com y EF",Data Center,Comercial,Gtd Grupo Teleductos S.A.,42113,4,2015,Equip. Servicios,,,Chile,"Pasaje Lidice 652, Santiago, Santiago, RM - Santiago, Chile",-33.4353938,-70.6493249
177,1000057309,No,Parque San Damian - Torre A,Avda Las Condes 11700,Santiago,Metropolitana,RM - Santiago,RM,7650777,CL,LEED-CS v2009,BD+C,63,Gold,26/01/2018,1,2018,Yes,,1308846400,12159.5809453056,262260000.0,Office: Other Office,Equip. Servicios,"Ind., Com y EF",Servicios,Público, ,42122,4,2015,Equip. Servicios,,,Chile,"Avda Las Condes 11700, Santiago, RM - Santiago, Chile",-33.37532,-70.52446
178,1000057320,No,Parque San Damian - Torre B,Avda Las Condes 11700,Santiago,Metropolitana,RM - Santiago,RM,7650777,CL,LEED-CS v2009,BD+C,63,Gold,26/01/2018,1,2018,Yes,,1311530000,12184.51240512,281410000.0,Office: Other Office,Equip. Servicios,"Ind., Com y EF",Servicios,Público, ,42122,4,2015,Equip. Servicios,,,Chile,"Avda Las Condes 11700, Santiago, RM - Santiago, Chile",-33.37532,-70.52446
179,1000058892,No,"Edificio SERVIU-SEREMI, MINVU Rancagua",Brasil 912,Rancagua,Del Libertador General Bernardo O'Higgins,VI - Rancagua,VI,2840599,CL,LEED-NC v2009,BD+C,53,Silver,28/06/2016,6,2016,Yes,"Government Use: Local, City",428240000,3978.47978496,537820000.0,Office: Government,Equip. Servicios,Servicios,Servicios,Público,MINVU SERVIU RANCAGUA,42171,6,2015,Equip. Servicios,,,Chile,"Brasil 912, Rancagua, VI - Rancagua, Chile",-34.1694769,-70.747383
180,1000059187,No,PATIO ALONSO DE CORDOVA,Alonso de Cordova 3788,santiago,Metropolitana,RM - Santiago,RM,7630419,CL,LEED-CS v2009,BD+C,61,Gold,20/03/2017,3,2017,Yes,"Investor: REIT,Non-traded",1517370000,14096.82858048,501440000.0,Office: Mixed-Use,Equip. Servicios,"Ind., Com y EF",Servicios,Público,GRUPO PATIO,42178,6,2015,Equip. Servicios,,,Chile,"Alonso de Cordova 3788, santiago, RM - Santiago, Chile",-33.40211,-70.59297
181,1000059312,No,EDIFICIO AMAPOLAS,Amapolas 5565,Santiago,Metropolitana,RM - Santiago,RM,7560824,CL,LEED-NC v2009,BD+C,45,Certified,25/04/2018,4,2018,Yes,Investor: Individual/Family,1158625100,10763.979401030401,387010000.0,Multi-Family Residential: Apartment,Residencial,Vivienda,Residencial,Residencial,INMOBILBILIARIA MOLINA MOREL,42180,6,2015,Residencial,,,Chile,"Amapolas 5565, Santiago, RM - Santiago, Chile",-33.4401227,-70.5733676
182,1000061533,No,Edificio Trento,"Calle Tiziano 30, Las Condes",Santiago,Metropolitana,RM - Santiago,RM,7561127,CL,LEED-NC v2009,BD+C,58,Silver,28/08/2017,8,2017,Yes,Corporate: Privately Held,691868000,6427.664047871999,236490000.0,Multi-Family Residential: Apartment,Residencial,Vivienda,Residencial,Residencial,INMOBILIARIA MONTE ACONCAGUA S.A.,42247,8,2015,Residencial,,,Chile,"Calle Tiziano 30, Las Condes, Santiago, RM - Santiago, Chile",-33.40382662243812,-70.5563082613374
183,1000061906,No,Edificio Corporativo Caja los Andes,Alonso de Ovalle 1465,Santiago,Metropolitana,RM - Santiago,RM,8330179,CL,LEED-CI v2009,ID+C,64,Gold,28/02/2017,2,2017,Yes,Investor: Pension Fund,1294515200,12026.4397406208,,Office: Administrative/Professional,Equip. Servicios,"Ind., Com y EF",Servicios,Público,Caja de Compensaci_n Familiar los Andes,42263,9,2015,Equip. Servicios,,,Chile,"Alonso de Ovalle 1465, Santiago, RM - Santiago, Chile",-33.4468632,-70.6565624
184,1000061983,No,Starbucks Alto El Plomo,"Av. Cerro El Plomo 5630 Local 103, Torre B",Santiago,Metropolitana,RM - Santiago,RM,7561160,CL,LEED-CI Retail v2009,ID+C,45,Certified,04/04/2016,4,2016,Yes,Corporate: Publicly Traded,12590000,116.96492736,,Retail: Fast Food,Equip. Comercio,"Ind., Com y EF",Comercial,Comercial,Starbucks,42265,9,2015,Equip. Comercio,,,Chile,"Av. Cerro El Plomo 5630 Local 103, Torre B, Santiago, RM - Santiago, Chile",-33.4159619,-70.6098184
185,1000061986,No,Starbucks Microsoft Building,Vitacura 6844,Santiago,Metropolitana,RM - Santiago,RM,7640538,CL,LEED-CI Retail v2009,ID+C,46,Certified,12/04/2016,4,2016,Yes,Corporate: Publicly Traded,19380000,180.04609152,,Retail: Fast Food,Equip. Comercio,"Ind., Com y EF",Comercial,Comercial,Starbucks,42265,9,2015,Equip. Comercio,,,Chile,"Vitacura 6844, Santiago, RM - Santiago, Chile",-33.38751,-70.56622
186,1000062626,No,Centro Medico Bosques,"Edmundo Eluchans 2030, lote 20E",Vina del Mar,Valparaíso,V - Valparaiso,V,0,CL,LEED-CI v2009,ID+C,54,Silver,08/09/2017,9,2017,Yes,Corporate: Privately Held,249572000,2318.5997498879997,,Healthcare: Outpatient Office (Diagnostic),Equip. Salud,Servicios,Salud,Público,Clinica Ciudad del Mar,42286,10,2015,Equip. Salud,,,Chile,"Edmundo Eluchans 2030, lote 20E, Vina del Mar, V - Valparaiso, Chile",-33.02425,-71.56246
187,1000063224,No,Edificio Los Militares - Apoquindo,"Los Militares 4627, Las Condes",Santiago,Metropolitana,RM - Santiago,RM,7560968,CL,LEED-CS v2009,BD+C,62,Gold,23/01/2018,1,2018,Yes,Investor: Investment Manager,1590910100,14780.038465670401,215380000.0,Office: Mixed-Use,Equip. Servicios,"Ind., Com y EF",Servicios,Público,CONSTRUCTORA APOQUINDO 2010 S.A,42304,10,2015,Equip. Servicios,,,Chile,"Los Militares 4627, Las Condes, Santiago, RM - Santiago, Chile",-33.41259681225605,-70.58219879252633
188,1000064956,No,Minvu Serviu Antofagasta,Washington St # 2551,Antofagasta,Antofagasta,II - Antofagasta,II,1271453,CL,LEED-NC v2009,BD+C,60,Gold,1/17/2019,1,2019,Yes,"Government Use: Local, City",430048300,3995.2794416832003,83630000.0,Office: Government,Equip. Servicios,Servicios,Servicios,Público,Serviu Regi_n de Antofagasta,42342,12,2015,Equip. Servicios,,,Chile,"Washington St # 2551, Antofagasta, II - Antofagasta, Chile",-23.64655,-70.39922
189,1000065408,No,Estacion de Servicio ACSA FACH ORIENTE,Terreno 1,Santiago,Metropolitana,RM - Santiago,RM,0,CL,LEED-NC v2009,BD+C,40,Certified,03/05/2018,5,2018,Yes,Corporate: Privately Held,73364200,681.5757207168,1936960000.0,Service: Other Service,Equip. Comercio,"Ind., Com y EF",Comercial,Comercial,Empresa Nacional de EnergYa ENEX S.A.,42355,12,2015,Equip. Comercio,,,Chile,"Terreno 1, Santiago, RM - Santiago, Chile",-33.50175,-70.77092
190,1000065409,No,Estacion de Servicio ACSA LO ESPEJO OR,Autopista Central km 8300,Santiago,Metropolitana,RM - Santiago,RM,0,CL,LEED-NC v2009,BD+C,43,Certified,25/07/2018,7,2018,Yes,Corporate: Privately Held,17890000,166.20353856,474780000.0,Service: Other Service,Equip. Comercio,"Ind., Com y EF",Comercial,Comercial,Empresa Nacional de EnergYa ENEX S.A.,42355,12,2015,Equip. Comercio,,,Chile,"Autopista Central km 8300, Santiago, RM - Santiago, Chile",-33.44187,-70.69175
191,1000065411,No,Estacion de Servicio ACSA LO BLANCO PO,"Autopista Central km 16,6",Santiago,Metropolitana,RM - Santiago,RM,0,CL,LEED-NC v2009,BD+C,44,Certified,20/01/2017,1,2017,Yes,Corporate: Privately Held,46216300,429.36347675519994,522340000.0,Service: Other Service,Equip. Comercio,"Ind., Com y EF",Comercial,Comercial,Empresa Nacional de EnergYa ENEX S.A.,42355,12,2015,Equip. Comercio,,,Chile,"Autopista Central km 16,6, Santiago, RM - Santiago, Chile",-33.44187,-70.69175
192,1000065437,No,Edificio Plaza Costanera,Av. Nueva Costanera 3605,Santiago,Metropolitana,RM - Santiago,RM,7630485,CL,LEED-CS v2009,BD+C,51,Silver,11/6/2019,11,2019,Yes,Corporate: Privately Held,860126400,7990.835734425601,210220000.0,Office: Mixed-Use,Equip. Servicios,"Ind., Com y EF",Servicios,Público,Inmobiliaria y Constructora Pastrana S.A,42356,12,2015,Equip. Servicios,,,Chile,"Av. Nueva Costanera 3605, Santiago, RM - Santiago, Chile",-33.40294,-70.59822
193,1000066203,No,Adidas Chile Headquarters,Espoz 3150,Santiago,Metropolitana,RM - Santiago,RM,7630266,CL,LEED-CI v2009,ID+C,76,Gold,17/10/2016,10,2016,Yes,Corporate: Privately Held,28780000,267.37494912,,Office: Administrative/Professional,Equip. Servicios,"Ind., Com y EF",Servicios,Público,Adidas Chile Limitada,42388,1,2016,Equip. Servicios,,,Chile,"Espoz 3150, Santiago, RM - Santiago, Chile",-33.39684,-70.59866
194,1000068671,No,Sucursal Banco Santander Fach,"Av. Las Condes 8642, Las Condes",Santiago,Metropolitana,RM - Santiago,RM,7560119,CL,LEED-NC v2009,BD+C,50,Silver,11/05/2017,5,2017,Yes,Corporate: Publicly Traded,3920000,36.41799168,,Retail: Bank Branch,Equip. Servicios,"Ind., Com y EF",Financiera,Comercial,Banco Santander Chile,42444,3,2016,Equip. Servicios,,,Chile,"Av. Las Condes 8642, Las Condes, Santiago, RM - Santiago, Chile",-33.37914,-70.52931
195,1000071140,No,Estacion de Servicio Maipo Poniente,"Ruta 5 km 28,1",Santiago,Metropolitana,RM - Santiago,RM,0,CL,LEED-NC v2009,BD+C,41,Certified,4/2/2019,4,2019,Yes,Corporate: Privately Held,80075900,743.9294540736,,Service: Vehicle Service/Repair,Equip. Comercio,"Ind., Com y EF",Comercial,Comercial,Empresa Nacional de Energia ENEX SA,42467,4,2016,Equip. Comercio,,,Chile,"Ruta 5 km 28,1, Santiago, RM - Santiago, Chile",-33.44056,-70.65994
196,1000071255,No,Edificio NC 3300,Av. Nueva Costanera 3300,Santiago,Metropolitana,RM - Santiago,RM,0,CL,LEED-CS v2009,BD+C,60,Gold,9/23/2019,9,2019,Yes,Corporate: Privately Held,1132620000,10522.38411648,,Office: Administrative/Professional,Equip. Servicios,"Ind., Com y EF",Servicios,Público,Inmobiliaria Parque Embajadores SpA,42467,4,2016,Equip. Servicios,,,Chile,"Av. Nueva Costanera 3300, Santiago, RM - Santiago, Chile",-33.40503,-70.59908
197,1000074669,No,Tottus Alderete,Avenida Vitacura 6980,Santiago,Metropolitana,RM - Santiago,RM,7640538,CL,LEED-NC v2009,BD+C,51,Silver,17/07/2018,7,2018,Yes,Non-Profit (that do not fit into ot,803519000,7464.935779775999,,Retail: Grocery Store/Food Market,Equip. Comercio,"Ind., Com y EF",Comercial,Comercial,Tottus,42583,8,2016,Equip. Comercio,,,Chile,"Avenida Vitacura 6980, Santiago, RM - Santiago, Chile",-33.38715,-70.56558
198,1000075117,No,Falabella Los Dominicos,"Av. Padre Hurtado Sur 875, Las Condes",Santiago,Metropolitana,RM - Santiago,RM,7571626,CL,LEED-CI Retail v2009,ID+C,58,Silver,28/08/2018,8,2018,Yes,Non-Profit (that do not fit into ot,1616656900,15019.2340646976,,Retail: Other Retail,Equip. Comercio,"Ind., Com y EF",Comercial,Comercial,S.A.C.I. Falabella,42593,8,2016,Equip. Comercio,,,Chile,"Av. Padre Hurtado Sur 875, Las Condes, Santiago, RM - Santiago, Chile",-33.41502423691904,-70.53961217078867
199,1000076244,No,Oficinas CChC sede Santiago,Av. Apoquindo 6760,Santiago,Metropolitana,RM - Santiago,RM,0,CL,LEED-CI v2009,ID+C,52,Silver,1/2/2019,1,2019,Yes,Community Development Corporation o,63446300,589.4354146751999,,Office: Administrative/Professional,Equip. Servicios,"Ind., Com y EF",Servicios,Público,Camara Chilena de la Construccion,42613,8,2016,Equip. Servicios,,,Chile,"Av. Apoquindo 6760, Santiago, RM - Santiago, Chile",-33.40728,-70.56058
200,1000085901,No,Banco Santander Talca,"1 Sur, 1098 esquina 4 Oriente",Talca,Del Maule,VII - Talca,VII,0,CL,LEED-NC v2009,BD+C,50,Silver,12/26/2019,12,2019,Yes,Corporate: Publicly Traded,23300000,216.4640832,,Retail: Bank Branch,Equip. Servicios,"Ind., Com y EF",Financiera,Comercial,Banco Santander Chile,42661,10,2016,Equip. Servicios,,,Chile,"1 Sur, 1098 esquina 4 Oriente, Talca, VII - Talca, Chile",-35.4275647,-71.6614485
201,1000093318,No,BancoEstado Santa Ana,Santo Domingo 1584,Santiago,Metropolitana,RM - Santiago,RM,8340312,CL,LEED-CI v2009,ID+C,60,Gold,26/10/2018,10,2018,Yes,Government Use: Federal,82995400,771.0524966016001,,Office: Administrative/Professional,Equip. Servicios,"Ind., Com y EF",Servicios,Público,Banco del Estado de Chile,42671,10,2016,Equip. Servicios,,,Chile,"Santo Domingo 1584, Santiago, RM - Santiago, Chile",-33.43884,-70.68605
202,1000097413,No,Tecnicas Reunidas Chile,"Las Condes, calle Badajoz 45",Santiago,Metropolitana,RM - Santiago,RM,7560941,CL,LEED v4 ID+C: CI,ID+C,47,Certified,14/07/2017,7,2017,Yes,Corporate: Privately Held,12610000,117.15073344,,Office: Administrative/Professional,Equip. Servicios,"Ind., Com y EF",Servicios,Público,Tecnicas Reunidas Chile,42732,12,2016,Equip. Servicios,,,Chile,"Las Condes, calle Badajoz 45, Santiago, RM - Santiago, Chile",-33.40932809418485,-70.57214460273865
203,1000102807,No,Starbucks Av. Kennedy 5413,Av. Kennedy 5413,Santiago,Metropolitana,RM - Santiago,RM,7591538,CL,LEED-CI Retail v2009,ID+C,42,Certified,22/03/2018,3,2018,Yes,Corporate: Publicly Traded,24540000,227.98406016,,Retail: Fast Food,Equip. Comercio,"Ind., Com y EF",Comercial,Comercial,Starbucks Coffee Company,43011,10,2017,Equip. Comercio,,,Chile,"Av. Kennedy 5413, Santiago, RM - Santiago, Chile",-33.401801,-70.5797179
204,1000108551,No,HOTEL DIRECTOR EL GOLF,45 Carmencita,Santiago,Metropolitana,RM - Santiago,RM,7550157,CL,LEED v4 BD+C: NC,BD+C,62,Gold,12/11/2019,12,2019,Yes,Corporate: Privately Held,34500000,320.515488,,"Lodging: Hotel/Motel/Resort, Full Service",Residencial,"Ind., Com y EF",Residencial,Residencial,HOTELES DIRECTOR LIMITADA,43251,5,2018,Residencial,,,Chile,"45 Carmencita, Santiago, RM - Santiago, Chile",-33.41629,-70.59854
205,10024791,No,HOTEL: POSADA DE MIKE RAPU,"Te# Miro O#ne s/n, Casilla 31, Isla de Pascua",EASTER ISLAND,Valparaíso,V - Valparaiso,V,11111,CL,LEED-NC 2.2,BD+C,36,Silver,10/02/2009,2,2009,Yes,Profit Org.,574560000,5337.8371,10333350000.0,Hotel/Resort,Residencial,"Ind., Com y EF",Residencial,Residencial,EXPLORA CHILE  S. A.,02/10/2006,10,2006,Residencial,-27.147939681999997,-109.42758178700001,Chile,"Te# Miro O#ne s/n, Casilla 31, Isla de Pascua, EASTER ISLAND, V - Valparaiso, Chile",-27.147939682006836,-109.42758178710938
206,1000123642,No,Drugstore,Providencia 2124,Santiago,Metropolitana,RM - Santiago,RM,7510095,CL,LEED-CI Retail v2009,ID+C,41,Certified,23/10/2019,10,2019,Yes,Corporate: Publicly Traded,16350000,151.8965,,Retail: Fast Food,Equip. Comercio,"Ind., Com y EF",Mall,Comercial,Starbucks Coffee Company,13/09/2019,9,2019,Equip. Comercio,,,Chile,"Providencia 2124, Santiago, RM - Santiago, Chile",-33.42245,-70.61118
207,1000123643,No,Callao Las Condes,Mariano SÃ¡nchez Fontecilla 310,Las Condes,Metropolitana,RM - Santiago,RM,7550296,CL,LEED-CI Retail v2009,ID+C,42,Certified,28/10/2019,10,2019,Yes,Corporate: Publicly Traded,17860000,165.9248,,Retail: Fast Food,Equip. Comercio,"Ind., Com y EF",Comercial,Comercial,Starbucks Coffee Company,13/09/2019,9,2019,Equip. Comercio,,,Chile,"Mariano SÃ¡nchez Fontecilla 310, Las Condes, RM - Santiago, Chile",-33.41968,-70.59888
208,1000123644,No,Marina Arauco 2,14 Norte 976,Vina del Mar,Valparaíso,V - Valparaiso,V,2530901,CL,LEED-CI Retail v2009,ID+C,50,Silver,23/10/2019,10,2019,Yes,Corporate: Publicly Traded,24020000,223.1531,,Retail: Fast Food,Equip. Comercio,"Ind., Com y EF",Mall,Comercial,Starbucks Coffee Company,13/09/2019,9,2019,Equip. Comercio,,,Chile,"14 Norte 976, Vina del Mar, V - Valparaiso, Chile",-33.02589,-71.54816
209,1000123645,No,Independencia,Independencia 565,Independencia,Metropolitana,RM - Santiago,RM,8380552,CL,LEED-CI Retail v2009,ID+C,49,Certified,23/10/2019,10,2019,Yes,Corporate: Publicly Traded,18980000,176.33,,Retail: Fast Food,Equip. Comercio,"Ind., Com y EF",Comercial,Comercial,Starbucks Coffee Company,13/09/2019,9,2019,Equip. Comercio,,,Chile,"Independencia 565, Independencia, RM - Santiago, Chile",-33.4246309,-70.6548105
210,1000123646,No,Ossandon,Ossandon 1220,La Reina,Metropolitana,RM - Santiago,RM,7860158,CL,LEED-CI Retail v2009,ID+C,47,Certified,23/10/2019,10,2019,Yes,Corporate: Publicly Traded,18940000,175.9584,,Retail: Fast Food,Equip. Comercio,"Ind., Com y EF",Comercial,Comercial,Starbucks Coffee Company,13/09/2019,9,2019,Equip. Comercio,,,Chile,"Ossandon 1220, La Reina, RM - Santiago, Chile",-33.4416975,-70.5434149
211,1000123647,No,Isabel la Catolica,Isabel La Catolica 4394,Las Condes,Metropolitana,RM - Santiago,RM,7550493,CL,LEED-CI Retail v2009,ID+C,45,Certified,23/10/2019,10,2019,Yes,Corporate: Publicly Traded,22310000,207.2667,,Retail: Fast Food,Equip. Comercio,"Ind., Com y EF",Comercial,Comercial,Starbucks Coffee Company,13/09/2019,9,2019,Equip. Comercio,,,Chile,"Isabel La Catolica 4394, Las Condes, RM - Santiago, Chile",-33.425933,-70.572142
212,1000123660,No,Flor de Azucena,Apoquindo 5400,Las Condes,Metropolitana,RM - Santiago,RM,7560910,CL,LEED-CI Retail v2009,ID+C,47,Certified,23/10/2019,10,2019,Yes,Corporate: Publicly Traded,16880000,156.8203,,Retail: Fast Food,Equip. Comercio,"Ind., Com y EF",Comercial,Comercial,Starbucks Coffee Company,13/09/2019,9,2019,Equip. Comercio,,,Chile,"Apoquindo 5400, Las Condes, RM - Santiago, Chile",-33.41002,-70.57267
